<?xml version="1.0" encoding="UTF-8"?>
<gpx version="1.1" creator="top-gas" xmlns="http://www.topografix.com/GPX/1/1" xmlns:xsi="http://www.w3.org/2001/XMLSchema-instance" xsi:schemaLocation="http://www.topografix.com/GPX/1/1 http://www.topografix.com/GPX/1/1/gpx.xsd">
  <metadata><name>07 · Santuari de Cura (Puig de Randa) (Media)</name><desc>Subida corta y revirada al Puig de Randa con vistas a toda la isla. Carretera estrecha en la parte final. Dificultad: Media. Distancia aprox.: 75 km.</desc><keywords>moto, mallorca, media</keywords></metadata>
  <wpt lat="39.576000" lon="2.655300"><name>Palma (Plaça d'Espanya)</name></wpt>
  <wpt lat="39.559400" lon="2.895000"><name>Algaida</name></wpt>
  <wpt lat="39.523600" lon="2.932200"><name>Randa</name></wpt>
  <wpt lat="39.521700" lon="2.920300"><name>Santuari de Cura</name></wpt>
  <wpt lat="39.490300" lon="2.890800"><name>Llucmajor</name></wpt>
  <trk><name>07 · Santuari de Cura (Puig de Randa) (Media)</name><desc>Subida corta y revirada al Puig de Randa con vistas a toda la isla. Carretera estrecha en la parte final. Dificultad: Media. Distancia aprox.: 75 km.</desc><type>Moto</type><trkseg>
    <trkpt lat="39.576024" lon="2.655272"/>
    <trkpt lat="39.575429" lon="2.654423"/>
    <trkpt lat="39.575697" lon="2.654084"/>
    <trkpt lat="39.575734" lon="2.654057"/>
    <trkpt lat="39.575900" lon="2.653860"/>
    <trkpt lat="39.575926" lon="2.653835"/>
    <trkpt lat="39.575951" lon="2.653820"/>
    <trkpt lat="39.575996" lon="2.653802"/>
    <trkpt lat="39.576082" lon="2.653788"/>
    <trkpt lat="39.576092" lon="2.653774"/>
    <trkpt lat="39.576237" lon="2.653617"/>
    <trkpt lat="39.576267" lon="2.653590"/>
    <trkpt lat="39.576335" lon="2.653538"/>
    <trkpt lat="39.576487" lon="2.653436"/>
    <trkpt lat="39.576799" lon="2.653225"/>
    <trkpt lat="39.577293" lon="2.652892"/>
    <trkpt lat="39.577401" lon="2.652692"/>
    <trkpt lat="39.577417" lon="2.652645"/>
    <trkpt lat="39.577513" lon="2.652359"/>
    <trkpt lat="39.577363" lon="2.652360"/>
    <trkpt lat="39.577294" lon="2.652559"/>
    <trkpt lat="39.577277" lon="2.652608"/>
    <trkpt lat="39.577238" lon="2.652690"/>
    <trkpt lat="39.577195" lon="2.652758"/>
    <trkpt lat="39.577127" lon="2.652828"/>
    <trkpt lat="39.576432" lon="2.653287"/>
    <trkpt lat="39.576251" lon="2.653404"/>
    <trkpt lat="39.576183" lon="2.653458"/>
    <trkpt lat="39.575991" lon="2.653628"/>
    <trkpt lat="39.575978" lon="2.653644"/>
    <trkpt lat="39.575831" lon="2.653821"/>
    <trkpt lat="39.575552" lon="2.654139"/>
    <trkpt lat="39.575524" lon="2.654170"/>
    <trkpt lat="39.575501" lon="2.654195"/>
    <trkpt lat="39.575371" lon="2.654381"/>
    <trkpt lat="39.575299" lon="2.654524"/>
    <trkpt lat="39.575032" lon="2.655134"/>
    <trkpt lat="39.574982" lon="2.655248"/>
    <trkpt lat="39.574940" lon="2.655317"/>
    <trkpt lat="39.574931" lon="2.655329"/>
    <trkpt lat="39.574854" lon="2.655391"/>
    <trkpt lat="39.574788" lon="2.655423"/>
    <trkpt lat="39.574514" lon="2.655483"/>
    <trkpt lat="39.574348" lon="2.655504"/>
    <trkpt lat="39.573795" lon="2.655575"/>
    <trkpt lat="39.573748" lon="2.655581"/>
    <trkpt lat="39.573621" lon="2.655614"/>
    <trkpt lat="39.573539" lon="2.655654"/>
    <trkpt lat="39.573449" lon="2.655761"/>
    <trkpt lat="39.572953" lon="2.656416"/>
    <trkpt lat="39.572804" lon="2.656594"/>
    <trkpt lat="39.572780" lon="2.656617"/>
    <trkpt lat="39.572713" lon="2.656682"/>
    <trkpt lat="39.572668" lon="2.656714"/>
    <trkpt lat="39.572612" lon="2.656738"/>
    <trkpt lat="39.572569" lon="2.656741"/>
    <trkpt lat="39.572414" lon="2.656730"/>
    <trkpt lat="39.572135" lon="2.656693"/>
    <trkpt lat="39.571694" lon="2.656629"/>
    <trkpt lat="39.571501" lon="2.656600"/>
    <trkpt lat="39.571419" lon="2.656594"/>
    <trkpt lat="39.571370" lon="2.656595"/>
    <trkpt lat="39.571127" lon="2.656729"/>
    <trkpt lat="39.570848" lon="2.656899"/>
    <trkpt lat="39.570360" lon="2.657184"/>
    <trkpt lat="39.570327" lon="2.657204"/>
    <trkpt lat="39.570306" lon="2.657212"/>
    <trkpt lat="39.570212" lon="2.657242"/>
    <trkpt lat="39.570139" lon="2.657268"/>
    <trkpt lat="39.570117" lon="2.657439"/>
    <trkpt lat="39.571024" lon="2.657960"/>
    <trkpt lat="39.571063" lon="2.657981"/>
    <trkpt lat="39.571280" lon="2.658133"/>
    <trkpt lat="39.571353" lon="2.658184"/>
    <trkpt lat="39.571360" lon="2.658568"/>
    <trkpt lat="39.571361" lon="2.658656"/>
    <trkpt lat="39.571365" lon="2.658958"/>
    <trkpt lat="39.571368" lon="2.659059"/>
    <trkpt lat="39.571387" lon="2.659876"/>
    <trkpt lat="39.571418" lon="2.661134"/>
    <trkpt lat="39.571423" lon="2.661351"/>
    <trkpt lat="39.571433" lon="2.661603"/>
    <trkpt lat="39.571444" lon="2.661978"/>
    <trkpt lat="39.571459" lon="2.662452"/>
    <trkpt lat="39.571458" lon="2.663342"/>
    <trkpt lat="39.571402" lon="2.664373"/>
    <trkpt lat="39.571318" lon="2.665288"/>
    <trkpt lat="39.571314" lon="2.665363"/>
    <trkpt lat="39.571292" lon="2.665589"/>
    <trkpt lat="39.571293" lon="2.666343"/>
    <trkpt lat="39.571294" lon="2.666732"/>
    <trkpt lat="39.571294" lon="2.666801"/>
    <trkpt lat="39.571295" lon="2.667207"/>
    <trkpt lat="39.571285" lon="2.668093"/>
    <trkpt lat="39.571275" lon="2.668990"/>
    <trkpt lat="39.571268" lon="2.669622"/>
    <trkpt lat="39.571259" lon="2.670090"/>
    <trkpt lat="39.571245" lon="2.670418"/>
    <trkpt lat="39.571212" lon="2.671072"/>
    <trkpt lat="39.571232" lon="2.671171"/>
    <trkpt lat="39.571230" lon="2.671502"/>
    <trkpt lat="39.571229" lon="2.671712"/>
    <trkpt lat="39.571224" lon="2.672539"/>
    <trkpt lat="39.571224" lon="2.672659"/>
    <trkpt lat="39.571223" lon="2.672827"/>
    <trkpt lat="39.571220" lon="2.673242"/>
    <trkpt lat="39.571219" lon="2.673530"/>
    <trkpt lat="39.571220" lon="2.673816"/>
    <trkpt lat="39.571224" lon="2.674744"/>
    <trkpt lat="39.571202" lon="2.674890"/>
    <trkpt lat="39.571184" lon="2.674985"/>
    <trkpt lat="39.571168" lon="2.675048"/>
    <trkpt lat="39.571149" lon="2.675121"/>
    <trkpt lat="39.571128" lon="2.675200"/>
    <trkpt lat="39.571095" lon="2.675300"/>
    <trkpt lat="39.571055" lon="2.675422"/>
    <trkpt lat="39.571014" lon="2.675533"/>
    <trkpt lat="39.570982" lon="2.675621"/>
    <trkpt lat="39.570931" lon="2.675732"/>
    <trkpt lat="39.570875" lon="2.675838"/>
    <trkpt lat="39.570802" lon="2.675958"/>
    <trkpt lat="39.570755" lon="2.676045"/>
    <trkpt lat="39.570726" lon="2.676096"/>
    <trkpt lat="39.570697" lon="2.676131"/>
    <trkpt lat="39.570634" lon="2.676182"/>
    <trkpt lat="39.570606" lon="2.676198"/>
    <trkpt lat="39.570578" lon="2.676218"/>
    <trkpt lat="39.570554" lon="2.676245"/>
    <trkpt lat="39.570534" lon="2.676275"/>
    <trkpt lat="39.570518" lon="2.676310"/>
    <trkpt lat="39.570504" lon="2.676351"/>
    <trkpt lat="39.570498" lon="2.676386"/>
    <trkpt lat="39.570495" lon="2.676428"/>
    <trkpt lat="39.570497" lon="2.676472"/>
    <trkpt lat="39.570507" lon="2.676514"/>
    <trkpt lat="39.570522" lon="2.676555"/>
    <trkpt lat="39.570540" lon="2.676591"/>
    <trkpt lat="39.570569" lon="2.676628"/>
    <trkpt lat="39.570592" lon="2.676649"/>
    <trkpt lat="39.570624" lon="2.676667"/>
    <trkpt lat="39.570656" lon="2.676680"/>
    <trkpt lat="39.570692" lon="2.676684"/>
    <trkpt lat="39.570724" lon="2.676681"/>
    <trkpt lat="39.570758" lon="2.676669"/>
    <trkpt lat="39.570788" lon="2.676653"/>
    <trkpt lat="39.570848" lon="2.676630"/>
    <trkpt lat="39.570898" lon="2.676623"/>
    <trkpt lat="39.571031" lon="2.676621"/>
    <trkpt lat="39.571233" lon="2.676618"/>
    <trkpt lat="39.571833" lon="2.676621"/>
    <trkpt lat="39.572263" lon="2.676637"/>
    <trkpt lat="39.572799" lon="2.676651"/>
    <trkpt lat="39.573073" lon="2.676659"/>
    <trkpt lat="39.573279" lon="2.676660"/>
    <trkpt lat="39.573849" lon="2.676640"/>
    <trkpt lat="39.573985" lon="2.676636"/>
    <trkpt lat="39.574169" lon="2.676638"/>
    <trkpt lat="39.574546" lon="2.676646"/>
    <trkpt lat="39.574598" lon="2.676656"/>
    <trkpt lat="39.574629" lon="2.676667"/>
    <trkpt lat="39.574669" lon="2.676695"/>
    <trkpt lat="39.574697" lon="2.676727"/>
    <trkpt lat="39.574717" lon="2.676755"/>
    <trkpt lat="39.574742" lon="2.676798"/>
    <trkpt lat="39.574759" lon="2.676839"/>
    <trkpt lat="39.574783" lon="2.676911"/>
    <trkpt lat="39.574809" lon="2.676995"/>
    <trkpt lat="39.574869" lon="2.677200"/>
    <trkpt lat="39.574915" lon="2.677345"/>
    <trkpt lat="39.575060" lon="2.677832"/>
    <trkpt lat="39.575072" lon="2.677874"/>
    <trkpt lat="39.575148" lon="2.678132"/>
    <trkpt lat="39.575488" lon="2.679256"/>
    <trkpt lat="39.575496" lon="2.679300"/>
    <trkpt lat="39.575500" lon="2.679345"/>
    <trkpt lat="39.575496" lon="2.679387"/>
    <trkpt lat="39.575488" lon="2.679428"/>
    <trkpt lat="39.575468" lon="2.679496"/>
    <trkpt lat="39.575423" lon="2.679596"/>
    <trkpt lat="39.575398" lon="2.679635"/>
    <trkpt lat="39.575386" lon="2.679659"/>
    <trkpt lat="39.575368" lon="2.679718"/>
    <trkpt lat="39.575362" lon="2.679782"/>
    <trkpt lat="39.575365" lon="2.679847"/>
    <trkpt lat="39.575374" lon="2.679899"/>
    <trkpt lat="39.575394" lon="2.679947"/>
    <trkpt lat="39.575410" lon="2.679973"/>
    <trkpt lat="39.575431" lon="2.680005"/>
    <trkpt lat="39.575459" lon="2.680054"/>
    <trkpt lat="39.575470" lon="2.680086"/>
    <trkpt lat="39.575479" lon="2.680119"/>
    <trkpt lat="39.575486" lon="2.680168"/>
    <trkpt lat="39.575489" lon="2.680228"/>
    <trkpt lat="39.575485" lon="2.680273"/>
    <trkpt lat="39.575473" lon="2.680432"/>
    <trkpt lat="39.575356" lon="2.680892"/>
    <trkpt lat="39.575166" lon="2.681567"/>
    <trkpt lat="39.575003" lon="2.682229"/>
    <trkpt lat="39.574862" lon="2.682765"/>
    <trkpt lat="39.574413" lon="2.684468"/>
    <trkpt lat="39.574324" lon="2.684794"/>
    <trkpt lat="39.574268" lon="2.684893"/>
    <trkpt lat="39.574233" lon="2.684952"/>
    <trkpt lat="39.574199" lon="2.685008"/>
    <trkpt lat="39.574161" lon="2.685052"/>
    <trkpt lat="39.574133" lon="2.685067"/>
    <trkpt lat="39.574106" lon="2.685088"/>
    <trkpt lat="39.574083" lon="2.685117"/>
    <trkpt lat="39.574062" lon="2.685161"/>
    <trkpt lat="39.574048" lon="2.685207"/>
    <trkpt lat="39.574044" lon="2.685254"/>
    <trkpt lat="39.574049" lon="2.685300"/>
    <trkpt lat="39.574063" lon="2.685350"/>
    <trkpt lat="39.574079" lon="2.685383"/>
    <trkpt lat="39.574094" lon="2.685411"/>
    <trkpt lat="39.574112" lon="2.685426"/>
    <trkpt lat="39.574140" lon="2.685445"/>
    <trkpt lat="39.574184" lon="2.685499"/>
    <trkpt lat="39.574230" lon="2.685577"/>
    <trkpt lat="39.574262" lon="2.685660"/>
    <trkpt lat="39.574297" lon="2.685747"/>
    <trkpt lat="39.574335" lon="2.685879"/>
    <trkpt lat="39.574912" lon="2.687841"/>
    <trkpt lat="39.574926" lon="2.688026"/>
    <trkpt lat="39.574939" lon="2.688202"/>
    <trkpt lat="39.574902" lon="2.689206"/>
    <trkpt lat="39.574763" lon="2.692094"/>
    <trkpt lat="39.574769" lon="2.692585"/>
    <trkpt lat="39.574781" lon="2.692646"/>
    <trkpt lat="39.574912" lon="2.693209"/>
    <trkpt lat="39.574998" lon="2.693497"/>
    <trkpt lat="39.575246" lon="2.694111"/>
    <trkpt lat="39.575496" lon="2.694787"/>
    <trkpt lat="39.575650" lon="2.695300"/>
    <trkpt lat="39.575759" lon="2.695728"/>
    <trkpt lat="39.575913" lon="2.696337"/>
    <trkpt lat="39.576701" lon="2.699639"/>
    <trkpt lat="39.576832" lon="2.700213"/>
    <trkpt lat="39.576983" lon="2.700822"/>
    <trkpt lat="39.577632" lon="2.703427"/>
    <trkpt lat="39.577944" lon="2.704659"/>
    <trkpt lat="39.578105" lon="2.705299"/>
    <trkpt lat="39.578149" lon="2.705480"/>
    <trkpt lat="39.578232" lon="2.705822"/>
    <trkpt lat="39.578309" lon="2.706160"/>
    <trkpt lat="39.578379" lon="2.706504"/>
    <trkpt lat="39.578436" lon="2.706831"/>
    <trkpt lat="39.578492" lon="2.707195"/>
    <trkpt lat="39.578560" lon="2.707788"/>
    <trkpt lat="39.578627" lon="2.708374"/>
    <trkpt lat="39.578687" lon="2.708821"/>
    <trkpt lat="39.578722" lon="2.709112"/>
    <trkpt lat="39.578783" lon="2.709596"/>
    <trkpt lat="39.578782" lon="2.709816"/>
    <trkpt lat="39.578771" lon="2.709891"/>
    <trkpt lat="39.578767" lon="2.709908"/>
    <trkpt lat="39.578758" lon="2.709937"/>
    <trkpt lat="39.578731" lon="2.709981"/>
    <trkpt lat="39.578689" lon="2.710028"/>
    <trkpt lat="39.578637" lon="2.710062"/>
    <trkpt lat="39.578576" lon="2.710114"/>
    <trkpt lat="39.578539" lon="2.710174"/>
    <trkpt lat="39.578508" lon="2.710256"/>
    <trkpt lat="39.578495" lon="2.710326"/>
    <trkpt lat="39.578488" lon="2.710410"/>
    <trkpt lat="39.578495" lon="2.710520"/>
    <trkpt lat="39.578511" lon="2.710592"/>
    <trkpt lat="39.578553" lon="2.710679"/>
    <trkpt lat="39.578599" lon="2.710740"/>
    <trkpt lat="39.578647" lon="2.710786"/>
    <trkpt lat="39.578689" lon="2.710861"/>
    <trkpt lat="39.578701" lon="2.710902"/>
    <trkpt lat="39.578710" lon="2.710932"/>
    <trkpt lat="39.578718" lon="2.710998"/>
    <trkpt lat="39.578732" lon="2.711235"/>
    <trkpt lat="39.578738" lon="2.711792"/>
    <trkpt lat="39.578747" lon="2.712009"/>
    <trkpt lat="39.578766" lon="2.712260"/>
    <trkpt lat="39.578814" lon="2.712673"/>
    <trkpt lat="39.578860" lon="2.713268"/>
    <trkpt lat="39.578889" lon="2.714123"/>
    <trkpt lat="39.578911" lon="2.714951"/>
    <trkpt lat="39.578934" lon="2.715438"/>
    <trkpt lat="39.578926" lon="2.715762"/>
    <trkpt lat="39.578923" lon="2.715935"/>
    <trkpt lat="39.578903" lon="2.716091"/>
    <trkpt lat="39.578862" lon="2.716493"/>
    <trkpt lat="39.578858" lon="2.716525"/>
    <trkpt lat="39.578843" lon="2.716990"/>
    <trkpt lat="39.578863" lon="2.717234"/>
    <trkpt lat="39.578888" lon="2.717456"/>
    <trkpt lat="39.578924" lon="2.717614"/>
    <trkpt lat="39.579019" lon="2.717980"/>
    <trkpt lat="39.579035" lon="2.718030"/>
    <trkpt lat="39.579144" lon="2.718298"/>
    <trkpt lat="39.579232" lon="2.718455"/>
    <trkpt lat="39.579687" lon="2.719214"/>
    <trkpt lat="39.579758" lon="2.719331"/>
    <trkpt lat="39.580198" lon="2.720024"/>
    <trkpt lat="39.580615" lon="2.720771"/>
    <trkpt lat="39.580759" lon="2.721086"/>
    <trkpt lat="39.581506" lon="2.722970"/>
    <trkpt lat="39.582094" lon="2.724379"/>
    <trkpt lat="39.582734" lon="2.725811"/>
    <trkpt lat="39.582955" lon="2.726215"/>
    <trkpt lat="39.583303" lon="2.726755"/>
    <trkpt lat="39.583667" lon="2.727238"/>
    <trkpt lat="39.583929" lon="2.727610"/>
    <trkpt lat="39.584166" lon="2.727947"/>
    <trkpt lat="39.584510" lon="2.728494"/>
    <trkpt lat="39.584642" lon="2.728819"/>
    <trkpt lat="39.585049" lon="2.729827"/>
    <trkpt lat="39.585422" lon="2.730749"/>
    <trkpt lat="39.585628" lon="2.731266"/>
    <trkpt lat="39.585799" lon="2.731669"/>
    <trkpt lat="39.586007" lon="2.732190"/>
    <trkpt lat="39.586216" lon="2.732713"/>
    <trkpt lat="39.586678" lon="2.733879"/>
    <trkpt lat="39.587429" lon="2.735751"/>
    <trkpt lat="39.587471" lon="2.735857"/>
    <trkpt lat="39.587885" lon="2.737004"/>
    <trkpt lat="39.587918" lon="2.737118"/>
    <trkpt lat="39.588090" lon="2.737719"/>
    <trkpt lat="39.588179" lon="2.738270"/>
    <trkpt lat="39.588227" lon="2.738950"/>
    <trkpt lat="39.588214" lon="2.739565"/>
    <trkpt lat="39.588106" lon="2.740918"/>
    <trkpt lat="39.587969" lon="2.742642"/>
    <trkpt lat="39.587941" lon="2.742890"/>
    <trkpt lat="39.587828" lon="2.744903"/>
    <trkpt lat="39.587533" lon="2.748956"/>
    <trkpt lat="39.587397" lon="2.750450"/>
    <trkpt lat="39.587216" lon="2.752854"/>
    <trkpt lat="39.587141" lon="2.753779"/>
    <trkpt lat="39.587046" lon="2.754942"/>
    <trkpt lat="39.586602" lon="2.756768"/>
    <trkpt lat="39.586539" lon="2.757025"/>
    <trkpt lat="39.586480" lon="2.757279"/>
    <trkpt lat="39.585581" lon="2.761090"/>
    <trkpt lat="39.585559" lon="2.761293"/>
    <trkpt lat="39.585518" lon="2.761688"/>
    <trkpt lat="39.585642" lon="2.763139"/>
    <trkpt lat="39.585705" lon="2.763878"/>
    <trkpt lat="39.585717" lon="2.764023"/>
    <trkpt lat="39.585802" lon="2.765018"/>
    <trkpt lat="39.585836" lon="2.765994"/>
    <trkpt lat="39.585832" lon="2.767403"/>
    <trkpt lat="39.585821" lon="2.768016"/>
    <trkpt lat="39.585834" lon="2.768445"/>
    <trkpt lat="39.585868" lon="2.768747"/>
    <trkpt lat="39.585924" lon="2.769149"/>
    <trkpt lat="39.586007" lon="2.769535"/>
    <trkpt lat="39.586096" lon="2.769813"/>
    <trkpt lat="39.586212" lon="2.770177"/>
    <trkpt lat="39.586678" lon="2.771304"/>
    <trkpt lat="39.586838" lon="2.771693"/>
    <trkpt lat="39.586925" lon="2.771882"/>
    <trkpt lat="39.587261" lon="2.772617"/>
    <trkpt lat="39.587942" lon="2.774107"/>
    <trkpt lat="39.588367" lon="2.775062"/>
    <trkpt lat="39.588790" lon="2.776002"/>
    <trkpt lat="39.589155" lon="2.776811"/>
    <trkpt lat="39.590267" lon="2.779713"/>
    <trkpt lat="39.591060" lon="2.782211"/>
    <trkpt lat="39.591132" lon="2.782698"/>
    <trkpt lat="39.591391" lon="2.784528"/>
    <trkpt lat="39.591399" lon="2.784848"/>
    <trkpt lat="39.591426" lon="2.786021"/>
    <trkpt lat="39.591437" lon="2.786494"/>
    <trkpt lat="39.591403" lon="2.787414"/>
    <trkpt lat="39.591382" lon="2.787960"/>
    <trkpt lat="39.591339" lon="2.789132"/>
    <trkpt lat="39.591346" lon="2.789467"/>
    <trkpt lat="39.591368" lon="2.789775"/>
    <trkpt lat="39.591415" lon="2.790099"/>
    <trkpt lat="39.591517" lon="2.790597"/>
    <trkpt lat="39.591656" lon="2.791257"/>
    <trkpt lat="39.592628" lon="2.795575"/>
    <trkpt lat="39.592959" lon="2.796802"/>
    <trkpt lat="39.593203" lon="2.797308"/>
    <trkpt lat="39.593838" lon="2.798467"/>
    <trkpt lat="39.594123" lon="2.799137"/>
    <trkpt lat="39.594942" lon="2.801537"/>
    <trkpt lat="39.595184" lon="2.802289"/>
    <trkpt lat="39.595251" lon="2.802581"/>
    <trkpt lat="39.595321" lon="2.802883"/>
    <trkpt lat="39.595381" lon="2.803269"/>
    <trkpt lat="39.595375" lon="2.803846"/>
    <trkpt lat="39.595312" lon="2.804312"/>
    <trkpt lat="39.595162" lon="2.805050"/>
    <trkpt lat="39.594822" lon="2.806830"/>
    <trkpt lat="39.594803" lon="2.807113"/>
    <trkpt lat="39.594847" lon="2.809082"/>
    <trkpt lat="39.594914" lon="2.809332"/>
    <trkpt lat="39.594968" lon="2.809533"/>
    <trkpt lat="39.595103" lon="2.809890"/>
    <trkpt lat="39.595383" lon="2.810264"/>
    <trkpt lat="39.595582" lon="2.810410"/>
    <trkpt lat="39.595890" lon="2.810546"/>
    <trkpt lat="39.596339" lon="2.810570"/>
    <trkpt lat="39.596801" lon="2.810554"/>
    <trkpt lat="39.596917" lon="2.810562"/>
    <trkpt lat="39.597067" lon="2.810575"/>
    <trkpt lat="39.597267" lon="2.810623"/>
    <trkpt lat="39.597367" lon="2.810661"/>
    <trkpt lat="39.597475" lon="2.810706"/>
    <trkpt lat="39.597561" lon="2.810748"/>
    <trkpt lat="39.597651" lon="2.810808"/>
    <trkpt lat="39.597751" lon="2.810876"/>
    <trkpt lat="39.597832" lon="2.810938"/>
    <trkpt lat="39.598155" lon="2.811213"/>
    <trkpt lat="39.598508" lon="2.811541"/>
    <trkpt lat="39.598662" lon="2.811707"/>
    <trkpt lat="39.598796" lon="2.811866"/>
    <trkpt lat="39.598940" lon="2.812073"/>
    <trkpt lat="39.599014" lon="2.812196"/>
    <trkpt lat="39.599076" lon="2.812315"/>
    <trkpt lat="39.599160" lon="2.812487"/>
    <trkpt lat="39.599233" lon="2.812672"/>
    <trkpt lat="39.599312" lon="2.812920"/>
    <trkpt lat="39.599377" lon="2.813191"/>
    <trkpt lat="39.599423" lon="2.813473"/>
    <trkpt lat="39.599464" lon="2.813830"/>
    <trkpt lat="39.599495" lon="2.814234"/>
    <trkpt lat="39.599537" lon="2.814676"/>
    <trkpt lat="39.599563" lon="2.814936"/>
    <trkpt lat="39.599585" lon="2.815108"/>
    <trkpt lat="39.599611" lon="2.815265"/>
    <trkpt lat="39.599640" lon="2.815409"/>
    <trkpt lat="39.599680" lon="2.815562"/>
    <trkpt lat="39.599722" lon="2.815706"/>
    <trkpt lat="39.599785" lon="2.815881"/>
    <trkpt lat="39.599849" lon="2.816036"/>
    <trkpt lat="39.599915" lon="2.816177"/>
    <trkpt lat="39.599982" lon="2.816305"/>
    <trkpt lat="39.600106" lon="2.816502"/>
    <trkpt lat="39.600227" lon="2.816669"/>
    <trkpt lat="39.600299" lon="2.816755"/>
    <trkpt lat="39.600383" lon="2.816848"/>
    <trkpt lat="39.600448" lon="2.816913"/>
    <trkpt lat="39.600554" lon="2.817010"/>
    <trkpt lat="39.600666" lon="2.817101"/>
    <trkpt lat="39.600832" lon="2.817214"/>
    <trkpt lat="39.601007" lon="2.817313"/>
    <trkpt lat="39.601114" lon="2.817362"/>
    <trkpt lat="39.601220" lon="2.817403"/>
    <trkpt lat="39.601398" lon="2.817453"/>
    <trkpt lat="39.601568" lon="2.817488"/>
    <trkpt lat="39.601777" lon="2.817520"/>
    <trkpt lat="39.602422" lon="2.817594"/>
    <trkpt lat="39.603463" lon="2.817723"/>
    <trkpt lat="39.603585" lon="2.817746"/>
    <trkpt lat="39.603964" lon="2.817828"/>
    <trkpt lat="39.604287" lon="2.817945"/>
    <trkpt lat="39.604569" lon="2.818061"/>
    <trkpt lat="39.605210" lon="2.818368"/>
    <trkpt lat="39.605462" lon="2.818487"/>
    <trkpt lat="39.605718" lon="2.818609"/>
    <trkpt lat="39.606015" lon="2.818748"/>
    <trkpt lat="39.606286" lon="2.818873"/>
    <trkpt lat="39.606656" lon="2.819050"/>
    <trkpt lat="39.606807" lon="2.819132"/>
    <trkpt lat="39.606969" lon="2.819224"/>
    <trkpt lat="39.607091" lon="2.819311"/>
    <trkpt lat="39.607212" lon="2.819406"/>
    <trkpt lat="39.607315" lon="2.819501"/>
    <trkpt lat="39.607418" lon="2.819605"/>
    <trkpt lat="39.607467" lon="2.819662"/>
    <trkpt lat="39.607518" lon="2.819722"/>
    <trkpt lat="39.607629" lon="2.819866"/>
    <trkpt lat="39.607729" lon="2.820009"/>
    <trkpt lat="39.607822" lon="2.820149"/>
    <trkpt lat="39.608412" lon="2.821089"/>
    <trkpt lat="39.608547" lon="2.821304"/>
    <trkpt lat="39.610372" lon="2.824461"/>
    <trkpt lat="39.610703" lon="2.825032"/>
    <trkpt lat="39.610907" lon="2.825382"/>
    <trkpt lat="39.611108" lon="2.825714"/>
    <trkpt lat="39.611194" lon="2.825944"/>
    <trkpt lat="39.611317" lon="2.826272"/>
    <trkpt lat="39.611593" lon="2.827222"/>
    <trkpt lat="39.611776" lon="2.828903"/>
    <trkpt lat="39.611889" lon="2.830056"/>
    <trkpt lat="39.611957" lon="2.830740"/>
    <trkpt lat="39.611999" lon="2.831114"/>
    <trkpt lat="39.612092" lon="2.831809"/>
    <trkpt lat="39.612244" lon="2.832945"/>
    <trkpt lat="39.612384" lon="2.833987"/>
    <trkpt lat="39.612459" lon="2.834642"/>
    <trkpt lat="39.612543" lon="2.835645"/>
    <trkpt lat="39.612574" lon="2.836000"/>
    <trkpt lat="39.612716" lon="2.837346"/>
    <trkpt lat="39.613658" lon="2.844960"/>
    <trkpt lat="39.614143" lon="2.849297"/>
    <trkpt lat="39.614321" lon="2.850888"/>
    <trkpt lat="39.614541" lon="2.852858"/>
    <trkpt lat="39.614889" lon="2.856178"/>
    <trkpt lat="39.614894" lon="2.856271"/>
    <trkpt lat="39.613178" lon="2.857551"/>
    <trkpt lat="39.612856" lon="2.857769"/>
    <trkpt lat="39.610846" lon="2.858954"/>
    <trkpt lat="39.609942" lon="2.859578"/>
    <trkpt lat="39.609661" lon="2.859755"/>
    <trkpt lat="39.608601" lon="2.860312"/>
    <trkpt lat="39.606760" lon="2.861668"/>
    <trkpt lat="39.606696" lon="2.861723"/>
    <trkpt lat="39.605892" lon="2.862220"/>
    <trkpt lat="39.605677" lon="2.862392"/>
    <trkpt lat="39.604296" lon="2.863662"/>
    <trkpt lat="39.603634" lon="2.864378"/>
    <trkpt lat="39.602842" lon="2.865304"/>
    <trkpt lat="39.602531" lon="2.865617"/>
    <trkpt lat="39.602304" lon="2.865812"/>
    <trkpt lat="39.601868" lon="2.866143"/>
    <trkpt lat="39.600580" lon="2.867031"/>
    <trkpt lat="39.599794" lon="2.867583"/>
    <trkpt lat="39.599730" lon="2.867636"/>
    <trkpt lat="39.599027" lon="2.867823"/>
    <trkpt lat="39.598307" lon="2.868103"/>
    <trkpt lat="39.597138" lon="2.868419"/>
    <trkpt lat="39.596904" lon="2.868532"/>
    <trkpt lat="39.595386" lon="2.869358"/>
    <trkpt lat="39.593543" lon="2.870361"/>
    <trkpt lat="39.591826" lon="2.871296"/>
    <trkpt lat="39.591755" lon="2.871335"/>
    <trkpt lat="39.590112" lon="2.872229"/>
    <trkpt lat="39.589966" lon="2.872266"/>
    <trkpt lat="39.589904" lon="2.872262"/>
    <trkpt lat="39.587848" lon="2.871838"/>
    <trkpt lat="39.587599" lon="2.871783"/>
    <trkpt lat="39.587568" lon="2.871787"/>
    <trkpt lat="39.587241" lon="2.871901"/>
    <trkpt lat="39.585557" lon="2.872530"/>
    <trkpt lat="39.581740" lon="2.873942"/>
    <trkpt lat="39.581556" lon="2.874011"/>
    <trkpt lat="39.581454" lon="2.874068"/>
    <trkpt lat="39.579033" lon="2.876753"/>
    <trkpt lat="39.578997" lon="2.876791"/>
    <trkpt lat="39.578362" lon="2.877256"/>
    <trkpt lat="39.577791" lon="2.877812"/>
    <trkpt lat="39.577392" lon="2.878537"/>
    <trkpt lat="39.577257" lon="2.878781"/>
    <trkpt lat="39.576669" lon="2.879581"/>
    <trkpt lat="39.576183" lon="2.880112"/>
    <trkpt lat="39.574590" lon="2.880688"/>
    <trkpt lat="39.573956" lon="2.880789"/>
    <trkpt lat="39.571557" lon="2.881128"/>
    <trkpt lat="39.570493" lon="2.881295"/>
    <trkpt lat="39.570376" lon="2.881317"/>
    <trkpt lat="39.570073" lon="2.881434"/>
    <trkpt lat="39.569950" lon="2.881480"/>
    <trkpt lat="39.569699" lon="2.881575"/>
    <trkpt lat="39.569455" lon="2.881673"/>
    <trkpt lat="39.569362" lon="2.881697"/>
    <trkpt lat="39.569277" lon="2.881686"/>
    <trkpt lat="39.569218" lon="2.881681"/>
    <trkpt lat="39.569156" lon="2.881676"/>
    <trkpt lat="39.569139" lon="2.881657"/>
    <trkpt lat="39.569123" lon="2.881647"/>
    <trkpt lat="39.569107" lon="2.881641"/>
    <trkpt lat="39.569083" lon="2.881641"/>
    <trkpt lat="39.569057" lon="2.881651"/>
    <trkpt lat="39.569040" lon="2.881665"/>
    <trkpt lat="39.569025" lon="2.881686"/>
    <trkpt lat="39.569016" lon="2.881707"/>
    <trkpt lat="39.569010" lon="2.881730"/>
    <trkpt lat="39.568961" lon="2.881717"/>
    <trkpt lat="39.568898" lon="2.881693"/>
    <trkpt lat="39.568674" lon="2.881615"/>
    <trkpt lat="39.568603" lon="2.881569"/>
    <trkpt lat="39.568550" lon="2.881535"/>
    <trkpt lat="39.568556" lon="2.881512"/>
    <trkpt lat="39.568557" lon="2.881487"/>
    <trkpt lat="39.568555" lon="2.881466"/>
    <trkpt lat="39.568549" lon="2.881445"/>
    <trkpt lat="39.568540" lon="2.881427"/>
    <trkpt lat="39.568529" lon="2.881410"/>
    <trkpt lat="39.568513" lon="2.881396"/>
    <trkpt lat="39.568494" lon="2.881386"/>
    <trkpt lat="39.568468" lon="2.881383"/>
    <trkpt lat="39.568446" lon="2.881388"/>
    <trkpt lat="39.568434" lon="2.881395"/>
    <trkpt lat="39.568416" lon="2.881412"/>
    <trkpt lat="39.568402" lon="2.881433"/>
    <trkpt lat="39.568395" lon="2.881451"/>
    <trkpt lat="39.568391" lon="2.881470"/>
    <trkpt lat="39.568389" lon="2.881492"/>
    <trkpt lat="39.568391" lon="2.881513"/>
    <trkpt lat="39.568396" lon="2.881535"/>
    <trkpt lat="39.568405" lon="2.881555"/>
    <trkpt lat="39.568372" lon="2.881590"/>
    <trkpt lat="39.568337" lon="2.881633"/>
    <trkpt lat="39.568309" lon="2.881791"/>
    <trkpt lat="39.568338" lon="2.882420"/>
    <trkpt lat="39.568319" lon="2.882949"/>
    <trkpt lat="39.568257" lon="2.883554"/>
    <trkpt lat="39.568222" lon="2.883904"/>
    <trkpt lat="39.568208" lon="2.884079"/>
    <trkpt lat="39.568197" lon="2.884275"/>
    <trkpt lat="39.568186" lon="2.884605"/>
    <trkpt lat="39.568182" lon="2.884906"/>
    <trkpt lat="39.568177" lon="2.885160"/>
    <trkpt lat="39.568193" lon="2.886572"/>
    <trkpt lat="39.568186" lon="2.886798"/>
    <trkpt lat="39.568179" lon="2.887005"/>
    <trkpt lat="39.568162" lon="2.887218"/>
    <trkpt lat="39.568133" lon="2.887649"/>
    <trkpt lat="39.568094" lon="2.888149"/>
    <trkpt lat="39.568051" lon="2.888666"/>
    <trkpt lat="39.567979" lon="2.889442"/>
    <trkpt lat="39.567836" lon="2.890849"/>
    <trkpt lat="39.567716" lon="2.892140"/>
    <trkpt lat="39.567562" lon="2.893671"/>
    <trkpt lat="39.567444" lon="2.894879"/>
    <trkpt lat="39.567369" lon="2.895584"/>
    <trkpt lat="39.567305" lon="2.896235"/>
    <trkpt lat="39.567278" lon="2.896459"/>
    <trkpt lat="39.567240" lon="2.896703"/>
    <trkpt lat="39.567206" lon="2.896834"/>
    <trkpt lat="39.567119" lon="2.897163"/>
    <trkpt lat="39.567090" lon="2.897149"/>
    <trkpt lat="39.567059" lon="2.897142"/>
    <trkpt lat="39.567021" lon="2.897143"/>
    <trkpt lat="39.566984" lon="2.897155"/>
    <trkpt lat="39.566947" lon="2.897179"/>
    <trkpt lat="39.566916" lon="2.897213"/>
    <trkpt lat="39.566896" lon="2.897245"/>
    <trkpt lat="39.566882" lon="2.897280"/>
    <trkpt lat="39.566870" lon="2.897337"/>
    <trkpt lat="39.565743" lon="2.897243"/>
    <trkpt lat="39.565487" lon="2.897222"/>
    <trkpt lat="39.565409" lon="2.897102"/>
    <trkpt lat="39.565382" lon="2.896933"/>
    <trkpt lat="39.565376" lon="2.896761"/>
    <trkpt lat="39.565373" lon="2.896049"/>
    <trkpt lat="39.564908" lon="2.895984"/>
    <trkpt lat="39.563095" lon="2.895543"/>
    <trkpt lat="39.563073" lon="2.895538"/>
    <trkpt lat="39.562555" lon="2.895423"/>
    <trkpt lat="39.562226" lon="2.895345"/>
    <trkpt lat="39.562018" lon="2.895293"/>
    <trkpt lat="39.561403" lon="2.895140"/>
    <trkpt lat="39.561363" lon="2.895136"/>
    <trkpt lat="39.561326" lon="2.895140"/>
    <trkpt lat="39.561233" lon="2.895149"/>
    <trkpt lat="39.560894" lon="2.895216"/>
    <trkpt lat="39.560707" lon="2.895277"/>
    <trkpt lat="39.560424" lon="2.895321"/>
    <trkpt lat="39.560285" lon="2.895344"/>
    <trkpt lat="39.560122" lon="2.895348"/>
    <trkpt lat="39.559980" lon="2.895319"/>
    <trkpt lat="39.559892" lon="2.895233"/>
    <trkpt lat="39.559394" lon="2.895210"/>
    <trkpt lat="39.559354" lon="2.895208"/>
    <trkpt lat="39.559146" lon="2.895217"/>
    <trkpt lat="39.559031" lon="2.895221"/>
    <trkpt lat="39.559038" lon="2.895403"/>
    <trkpt lat="39.559052" lon="2.895665"/>
    <trkpt lat="39.558713" lon="2.896422"/>
    <trkpt lat="39.558579" lon="2.896743"/>
    <trkpt lat="39.558373" lon="2.897278"/>
    <trkpt lat="39.558331" lon="2.897424"/>
    <trkpt lat="39.558111" lon="2.898722"/>
    <trkpt lat="39.558085" lon="2.898926"/>
    <trkpt lat="39.557928" lon="2.899965"/>
    <trkpt lat="39.557870" lon="2.900193"/>
    <trkpt lat="39.557662" lon="2.900731"/>
    <trkpt lat="39.557547" lon="2.900908"/>
    <trkpt lat="39.557499" lon="2.900908"/>
    <trkpt lat="39.557454" lon="2.900928"/>
    <trkpt lat="39.557277" lon="2.900696"/>
    <trkpt lat="39.557114" lon="2.900410"/>
    <trkpt lat="39.556828" lon="2.899983"/>
    <trkpt lat="39.556424" lon="2.899532"/>
    <trkpt lat="39.556132" lon="2.899174"/>
    <trkpt lat="39.555924" lon="2.898919"/>
    <trkpt lat="39.555603" lon="2.898524"/>
    <trkpt lat="39.555399" lon="2.898203"/>
    <trkpt lat="39.555104" lon="2.897678"/>
    <trkpt lat="39.554825" lon="2.896973"/>
    <trkpt lat="39.554503" lon="2.895843"/>
    <trkpt lat="39.554396" lon="2.895456"/>
    <trkpt lat="39.554436" lon="2.895287"/>
    <trkpt lat="39.554471" lon="2.895241"/>
    <trkpt lat="39.554491" lon="2.895192"/>
    <trkpt lat="39.554501" lon="2.895138"/>
    <trkpt lat="39.554500" lon="2.895080"/>
    <trkpt lat="39.554488" lon="2.895025"/>
    <trkpt lat="39.554465" lon="2.894975"/>
    <trkpt lat="39.554441" lon="2.894943"/>
    <trkpt lat="39.554411" lon="2.894917"/>
    <trkpt lat="39.554379" lon="2.894900"/>
    <trkpt lat="39.554308" lon="2.894893"/>
    <trkpt lat="39.554274" lon="2.894904"/>
    <trkpt lat="39.554241" lon="2.894925"/>
    <trkpt lat="39.554213" lon="2.894953"/>
    <trkpt lat="39.554190" lon="2.894988"/>
    <trkpt lat="39.554173" lon="2.895029"/>
    <trkpt lat="39.554150" lon="2.895055"/>
    <trkpt lat="39.554083" lon="2.895139"/>
    <trkpt lat="39.553810" lon="2.895225"/>
    <trkpt lat="39.553650" lon="2.895281"/>
    <trkpt lat="39.553541" lon="2.895312"/>
    <trkpt lat="39.553095" lon="2.895526"/>
    <trkpt lat="39.553037" lon="2.895551"/>
    <trkpt lat="39.552994" lon="2.895570"/>
    <trkpt lat="39.552495" lon="2.895786"/>
    <trkpt lat="39.552170" lon="2.895927"/>
    <trkpt lat="39.551866" lon="2.896055"/>
    <trkpt lat="39.551683" lon="2.896135"/>
    <trkpt lat="39.549482" lon="2.897086"/>
    <trkpt lat="39.548061" lon="2.897701"/>
    <trkpt lat="39.547232" lon="2.898493"/>
    <trkpt lat="39.546481" lon="2.899224"/>
    <trkpt lat="39.546151" lon="2.899546"/>
    <trkpt lat="39.544511" lon="2.901147"/>
    <trkpt lat="39.544341" lon="2.901396"/>
    <trkpt lat="39.544180" lon="2.901639"/>
    <trkpt lat="39.544157" lon="2.901675"/>
    <trkpt lat="39.543814" lon="2.902201"/>
    <trkpt lat="39.543682" lon="2.902391"/>
    <trkpt lat="39.543588" lon="2.902527"/>
    <trkpt lat="39.543409" lon="2.902767"/>
    <trkpt lat="39.542896" lon="2.903281"/>
    <trkpt lat="39.542801" lon="2.903376"/>
    <trkpt lat="39.542683" lon="2.903494"/>
    <trkpt lat="39.541522" lon="2.904657"/>
    <trkpt lat="39.541399" lon="2.904780"/>
    <trkpt lat="39.541167" lon="2.905013"/>
    <trkpt lat="39.540094" lon="2.906059"/>
    <trkpt lat="39.539695" lon="2.906523"/>
    <trkpt lat="39.538974" lon="2.907568"/>
    <trkpt lat="39.538242" lon="2.908630"/>
    <trkpt lat="39.537990" lon="2.908995"/>
    <trkpt lat="39.537792" lon="2.909253"/>
    <trkpt lat="39.537583" lon="2.909473"/>
    <trkpt lat="39.537295" lon="2.909682"/>
    <trkpt lat="39.536707" lon="2.910036"/>
    <trkpt lat="39.536128" lon="2.910337"/>
    <trkpt lat="39.535846" lon="2.910394"/>
    <trkpt lat="39.535565" lon="2.910385"/>
    <trkpt lat="39.535013" lon="2.910294"/>
    <trkpt lat="39.533172" lon="2.909992"/>
    <trkpt lat="39.529259" lon="2.909351"/>
    <trkpt lat="39.528756" lon="2.909222"/>
    <trkpt lat="39.528560" lon="2.909160"/>
    <trkpt lat="39.528510" lon="2.909144"/>
    <trkpt lat="39.527857" lon="2.908813"/>
    <trkpt lat="39.527416" lon="2.908546"/>
    <trkpt lat="39.527097" lon="2.908305"/>
    <trkpt lat="39.526947" lon="2.908183"/>
    <trkpt lat="39.526509" lon="2.907805"/>
    <trkpt lat="39.525928" lon="2.907341"/>
    <trkpt lat="39.525719" lon="2.907188"/>
    <trkpt lat="39.525423" lon="2.907037"/>
    <trkpt lat="39.524310" lon="2.906707"/>
    <trkpt lat="39.524313" lon="2.906758"/>
    <trkpt lat="39.524337" lon="2.906894"/>
    <trkpt lat="39.524376" lon="2.906975"/>
    <trkpt lat="39.524411" lon="2.907046"/>
    <trkpt lat="39.524564" lon="2.907346"/>
    <trkpt lat="39.524665" lon="2.907516"/>
    <trkpt lat="39.524894" lon="2.907916"/>
    <trkpt lat="39.524929" lon="2.908005"/>
    <trkpt lat="39.524960" lon="2.908128"/>
    <trkpt lat="39.525015" lon="2.908417"/>
    <trkpt lat="39.525079" lon="2.908713"/>
    <trkpt lat="39.525141" lon="2.909000"/>
    <trkpt lat="39.525213" lon="2.909193"/>
    <trkpt lat="39.525373" lon="2.909488"/>
    <trkpt lat="39.525646" lon="2.909994"/>
    <trkpt lat="39.525708" lon="2.910108"/>
    <trkpt lat="39.525830" lon="2.910331"/>
    <trkpt lat="39.525977" lon="2.910599"/>
    <trkpt lat="39.526204" lon="2.910993"/>
    <trkpt lat="39.526226" lon="2.911034"/>
    <trkpt lat="39.526263" lon="2.911078"/>
    <trkpt lat="39.526361" lon="2.911178"/>
    <trkpt lat="39.526485" lon="2.911303"/>
    <trkpt lat="39.526504" lon="2.911337"/>
    <trkpt lat="39.526534" lon="2.911389"/>
    <trkpt lat="39.526632" lon="2.911577"/>
    <trkpt lat="39.526852" lon="2.911998"/>
    <trkpt lat="39.527105" lon="2.912306"/>
    <trkpt lat="39.527150" lon="2.912407"/>
    <trkpt lat="39.527166" lon="2.912905"/>
    <trkpt lat="39.527054" lon="2.913172"/>
    <trkpt lat="39.526757" lon="2.913790"/>
    <trkpt lat="39.526698" lon="2.913915"/>
    <trkpt lat="39.526663" lon="2.913988"/>
    <trkpt lat="39.526597" lon="2.914152"/>
    <trkpt lat="39.526569" lon="2.914236"/>
    <trkpt lat="39.526538" lon="2.914328"/>
    <trkpt lat="39.526496" lon="2.914529"/>
    <trkpt lat="39.526490" lon="2.914602"/>
    <trkpt lat="39.526474" lon="2.914730"/>
    <trkpt lat="39.526430" lon="2.914910"/>
    <trkpt lat="39.526224" lon="2.915528"/>
    <trkpt lat="39.526240" lon="2.915602"/>
    <trkpt lat="39.526392" lon="2.915648"/>
    <trkpt lat="39.526381" lon="2.915687"/>
    <trkpt lat="39.526258" lon="2.916187"/>
    <trkpt lat="39.526205" lon="2.916273"/>
    <trkpt lat="39.526155" lon="2.916323"/>
    <trkpt lat="39.526096" lon="2.916374"/>
    <trkpt lat="39.525953" lon="2.916472"/>
    <trkpt lat="39.525688" lon="2.916659"/>
    <trkpt lat="39.525634" lon="2.916727"/>
    <trkpt lat="39.525584" lon="2.916800"/>
    <trkpt lat="39.525568" lon="2.916878"/>
    <trkpt lat="39.525556" lon="2.916961"/>
    <trkpt lat="39.525555" lon="2.917078"/>
    <trkpt lat="39.525503" lon="2.917180"/>
    <trkpt lat="39.525496" lon="2.917196"/>
    <trkpt lat="39.525460" lon="2.917275"/>
    <trkpt lat="39.525407" lon="2.917370"/>
    <trkpt lat="39.525327" lon="2.917519"/>
    <trkpt lat="39.525262" lon="2.917601"/>
    <trkpt lat="39.525077" lon="2.917749"/>
    <trkpt lat="39.524915" lon="2.917862"/>
    <trkpt lat="39.524781" lon="2.917946"/>
    <trkpt lat="39.524696" lon="2.918033"/>
    <trkpt lat="39.524634" lon="2.918134"/>
    <trkpt lat="39.524623" lon="2.918168"/>
    <trkpt lat="39.524590" lon="2.918266"/>
    <trkpt lat="39.524572" lon="2.918339"/>
    <trkpt lat="39.524564" lon="2.918374"/>
    <trkpt lat="39.524528" lon="2.918544"/>
    <trkpt lat="39.524453" lon="2.918861"/>
    <trkpt lat="39.524412" lon="2.918995"/>
    <trkpt lat="39.524350" lon="2.919125"/>
    <trkpt lat="39.524209" lon="2.919352"/>
    <trkpt lat="39.524095" lon="2.919513"/>
    <trkpt lat="39.524053" lon="2.919574"/>
    <trkpt lat="39.523989" lon="2.919654"/>
    <trkpt lat="39.523915" lon="2.919716"/>
    <trkpt lat="39.523824" lon="2.919793"/>
    <trkpt lat="39.523719" lon="2.919860"/>
    <trkpt lat="39.523622" lon="2.919927"/>
    <trkpt lat="39.523376" lon="2.920072"/>
    <trkpt lat="39.523144" lon="2.920196"/>
    <trkpt lat="39.522909" lon="2.920338"/>
    <trkpt lat="39.522673" lon="2.920490"/>
    <trkpt lat="39.522628" lon="2.920548"/>
    <trkpt lat="39.522614" lon="2.920603"/>
    <trkpt lat="39.522620" lon="2.920666"/>
    <trkpt lat="39.522637" lon="2.920692"/>
    <trkpt lat="39.522676" lon="2.920718"/>
    <trkpt lat="39.522720" lon="2.920714"/>
    <trkpt lat="39.522774" lon="2.920679"/>
    <trkpt lat="39.522864" lon="2.920591"/>
    <trkpt lat="39.522965" lon="2.920502"/>
    <trkpt lat="39.523034" lon="2.920441"/>
    <trkpt lat="39.523116" lon="2.920402"/>
    <trkpt lat="39.523169" lon="2.920400"/>
    <trkpt lat="39.523204" lon="2.920413"/>
    <trkpt lat="39.523242" lon="2.920455"/>
    <trkpt lat="39.523235" lon="2.920525"/>
    <trkpt lat="39.523170" lon="2.920595"/>
    <trkpt lat="39.523096" lon="2.920632"/>
    <trkpt lat="39.523027" lon="2.920674"/>
    <trkpt lat="39.522939" lon="2.920746"/>
    <trkpt lat="39.522883" lon="2.920838"/>
    <trkpt lat="39.522854" lon="2.920934"/>
    <trkpt lat="39.522847" lon="2.921053"/>
    <trkpt lat="39.522849" lon="2.921138"/>
    <trkpt lat="39.522851" lon="2.921209"/>
    <trkpt lat="39.522839" lon="2.921270"/>
    <trkpt lat="39.522814" lon="2.921323"/>
    <trkpt lat="39.522747" lon="2.921434"/>
    <trkpt lat="39.522636" lon="2.921543"/>
    <trkpt lat="39.522436" lon="2.921689"/>
    <trkpt lat="39.522174" lon="2.921862"/>
    <trkpt lat="39.521747" lon="2.922098"/>
    <trkpt lat="39.521587" lon="2.922207"/>
    <trkpt lat="39.521486" lon="2.922308"/>
    <trkpt lat="39.521391" lon="2.922427"/>
    <trkpt lat="39.521304" lon="2.922543"/>
    <trkpt lat="39.521232" lon="2.922672"/>
    <trkpt lat="39.520924" lon="2.923292"/>
    <trkpt lat="39.520878" lon="2.923361"/>
    <trkpt lat="39.520808" lon="2.923419"/>
    <trkpt lat="39.520671" lon="2.923546"/>
    <trkpt lat="39.520559" lon="2.923655"/>
    <trkpt lat="39.520461" lon="2.923796"/>
    <trkpt lat="39.520398" lon="2.923937"/>
    <trkpt lat="39.520362" lon="2.924050"/>
    <trkpt lat="39.520345" lon="2.924171"/>
    <trkpt lat="39.520332" lon="2.924286"/>
    <trkpt lat="39.520325" lon="2.924339"/>
    <trkpt lat="39.520304" lon="2.924391"/>
    <trkpt lat="39.520271" lon="2.924415"/>
    <trkpt lat="39.520224" lon="2.924428"/>
    <trkpt lat="39.520171" lon="2.924426"/>
    <trkpt lat="39.520104" lon="2.924407"/>
    <trkpt lat="39.519882" lon="2.924345"/>
    <trkpt lat="39.519697" lon="2.924293"/>
    <trkpt lat="39.519558" lon="2.924233"/>
    <trkpt lat="39.519509" lon="2.924204"/>
    <trkpt lat="39.519448" lon="2.924150"/>
    <trkpt lat="39.519394" lon="2.924078"/>
    <trkpt lat="39.519335" lon="2.924008"/>
    <trkpt lat="39.519291" lon="2.923976"/>
    <trkpt lat="39.519251" lon="2.923961"/>
    <trkpt lat="39.519209" lon="2.923960"/>
    <trkpt lat="39.519133" lon="2.923990"/>
    <trkpt lat="39.519063" lon="2.924036"/>
    <trkpt lat="39.519035" lon="2.924079"/>
    <trkpt lat="39.518972" lon="2.924174"/>
    <trkpt lat="39.518921" lon="2.924238"/>
    <trkpt lat="39.518870" lon="2.924329"/>
    <trkpt lat="39.518810" lon="2.924461"/>
    <trkpt lat="39.518790" lon="2.924551"/>
    <trkpt lat="39.518797" lon="2.924606"/>
    <trkpt lat="39.518822" lon="2.924654"/>
    <trkpt lat="39.518864" lon="2.924678"/>
    <trkpt lat="39.518927" lon="2.924692"/>
    <trkpt lat="39.519022" lon="2.924705"/>
    <trkpt lat="39.519073" lon="2.924711"/>
    <trkpt lat="39.519213" lon="2.924765"/>
    <trkpt lat="39.519341" lon="2.924854"/>
    <trkpt lat="39.519536" lon="2.925025"/>
    <trkpt lat="39.520003" lon="2.925498"/>
    <trkpt lat="39.520074" lon="2.925575"/>
    <trkpt lat="39.520235" lon="2.925746"/>
    <trkpt lat="39.520405" lon="2.925928"/>
    <trkpt lat="39.520658" lon="2.926221"/>
    <trkpt lat="39.520881" lon="2.926528"/>
    <trkpt lat="39.521067" lon="2.926790"/>
    <trkpt lat="39.521142" lon="2.926895"/>
    <trkpt lat="39.521239" lon="2.926991"/>
    <trkpt lat="39.521324" lon="2.927053"/>
    <trkpt lat="39.521429" lon="2.927111"/>
    <trkpt lat="39.521561" lon="2.927178"/>
    <trkpt lat="39.521601" lon="2.927208"/>
    <trkpt lat="39.521631" lon="2.927254"/>
    <trkpt lat="39.521635" lon="2.927315"/>
    <trkpt lat="39.521615" lon="2.927368"/>
    <trkpt lat="39.521585" lon="2.927405"/>
    <trkpt lat="39.521549" lon="2.927423"/>
    <trkpt lat="39.521488" lon="2.927399"/>
    <trkpt lat="39.521320" lon="2.927251"/>
    <trkpt lat="39.520824" lon="2.926888"/>
    <trkpt lat="39.520139" lon="2.926454"/>
    <trkpt lat="39.519992" lon="2.926361"/>
    <trkpt lat="39.519747" lon="2.926204"/>
    <trkpt lat="39.519587" lon="2.926124"/>
    <trkpt lat="39.519473" lon="2.926060"/>
    <trkpt lat="39.519400" lon="2.926028"/>
    <trkpt lat="39.519361" lon="2.926029"/>
    <trkpt lat="39.519320" lon="2.926041"/>
    <trkpt lat="39.519292" lon="2.926068"/>
    <trkpt lat="39.519268" lon="2.926106"/>
    <trkpt lat="39.519255" lon="2.926175"/>
    <trkpt lat="39.519279" lon="2.926232"/>
    <trkpt lat="39.519332" lon="2.926287"/>
    <trkpt lat="39.519416" lon="2.926303"/>
    <trkpt lat="39.519521" lon="2.926301"/>
    <trkpt lat="39.519583" lon="2.926317"/>
    <trkpt lat="39.519649" lon="2.926356"/>
    <trkpt lat="39.519897" lon="2.926546"/>
    <trkpt lat="39.520305" lon="2.926915"/>
    <trkpt lat="39.520389" lon="2.926990"/>
    <trkpt lat="39.520774" lon="2.927333"/>
    <trkpt lat="39.520926" lon="2.927470"/>
    <trkpt lat="39.521406" lon="2.927835"/>
    <trkpt lat="39.521469" lon="2.927894"/>
    <trkpt lat="39.521646" lon="2.928060"/>
    <trkpt lat="39.521732" lon="2.928140"/>
    <trkpt lat="39.521958" lon="2.928351"/>
    <trkpt lat="39.522106" lon="2.928529"/>
    <trkpt lat="39.522316" lon="2.928799"/>
    <trkpt lat="39.522585" lon="2.929237"/>
    <trkpt lat="39.522755" lon="2.929533"/>
    <trkpt lat="39.522925" lon="2.929832"/>
    <trkpt lat="39.522961" lon="2.929875"/>
    <trkpt lat="39.523086" lon="2.930027"/>
    <trkpt lat="39.523267" lon="2.930223"/>
    <trkpt lat="39.523292" lon="2.930273"/>
    <trkpt lat="39.523303" lon="2.930337"/>
    <trkpt lat="39.523288" lon="2.930389"/>
    <trkpt lat="39.523249" lon="2.930418"/>
    <trkpt lat="39.523193" lon="2.930420"/>
    <trkpt lat="39.523140" lon="2.930392"/>
    <trkpt lat="39.522713" lon="2.929850"/>
    <trkpt lat="39.522505" lon="2.929598"/>
    <trkpt lat="39.522434" lon="2.929540"/>
    <trkpt lat="39.522293" lon="2.929354"/>
    <trkpt lat="39.522144" lon="2.929221"/>
    <trkpt lat="39.521842" lon="2.928998"/>
    <trkpt lat="39.521645" lon="2.928879"/>
    <trkpt lat="39.521555" lon="2.928844"/>
    <trkpt lat="39.521436" lon="2.928817"/>
    <trkpt lat="39.521204" lon="2.928808"/>
    <trkpt lat="39.521132" lon="2.928819"/>
    <trkpt lat="39.521022" lon="2.928859"/>
    <trkpt lat="39.520947" lon="2.928913"/>
    <trkpt lat="39.520899" lon="2.928983"/>
    <trkpt lat="39.520873" lon="2.929058"/>
    <trkpt lat="39.520863" lon="2.929148"/>
    <trkpt lat="39.520868" lon="2.929213"/>
    <trkpt lat="39.520883" lon="2.929287"/>
    <trkpt lat="39.520915" lon="2.929398"/>
    <trkpt lat="39.520955" lon="2.929506"/>
    <trkpt lat="39.520988" lon="2.929577"/>
    <trkpt lat="39.521041" lon="2.929655"/>
    <trkpt lat="39.521098" lon="2.929710"/>
    <trkpt lat="39.521166" lon="2.929758"/>
    <trkpt lat="39.521259" lon="2.929790"/>
    <trkpt lat="39.521313" lon="2.929816"/>
    <trkpt lat="39.521353" lon="2.929865"/>
    <trkpt lat="39.521402" lon="2.929939"/>
    <trkpt lat="39.521514" lon="2.930064"/>
    <trkpt lat="39.521745" lon="2.930283"/>
    <trkpt lat="39.521989" lon="2.930509"/>
    <trkpt lat="39.522089" lon="2.930604"/>
    <trkpt lat="39.522161" lon="2.930657"/>
    <trkpt lat="39.522313" lon="2.930723"/>
    <trkpt lat="39.522461" lon="2.930772"/>
    <trkpt lat="39.522656" lon="2.930842"/>
    <trkpt lat="39.522836" lon="2.930943"/>
    <trkpt lat="39.523102" lon="2.931146"/>
    <trkpt lat="39.523172" lon="2.931185"/>
    <trkpt lat="39.523268" lon="2.931238"/>
    <trkpt lat="39.523451" lon="2.931310"/>
    <trkpt lat="39.523683" lon="2.931357"/>
    <trkpt lat="39.523451" lon="2.931310"/>
    <trkpt lat="39.523268" lon="2.931238"/>
    <trkpt lat="39.523172" lon="2.931185"/>
    <trkpt lat="39.523102" lon="2.931146"/>
    <trkpt lat="39.522836" lon="2.930943"/>
    <trkpt lat="39.522656" lon="2.930842"/>
    <trkpt lat="39.522461" lon="2.930772"/>
    <trkpt lat="39.522313" lon="2.930723"/>
    <trkpt lat="39.522161" lon="2.930657"/>
    <trkpt lat="39.522089" lon="2.930604"/>
    <trkpt lat="39.521989" lon="2.930509"/>
    <trkpt lat="39.521745" lon="2.930283"/>
    <trkpt lat="39.521514" lon="2.930064"/>
    <trkpt lat="39.521402" lon="2.929939"/>
    <trkpt lat="39.521353" lon="2.929865"/>
    <trkpt lat="39.521313" lon="2.929816"/>
    <trkpt lat="39.521259" lon="2.929790"/>
    <trkpt lat="39.521166" lon="2.929758"/>
    <trkpt lat="39.521098" lon="2.929710"/>
    <trkpt lat="39.521041" lon="2.929655"/>
    <trkpt lat="39.520988" lon="2.929577"/>
    <trkpt lat="39.520955" lon="2.929506"/>
    <trkpt lat="39.520915" lon="2.929398"/>
    <trkpt lat="39.520883" lon="2.929287"/>
    <trkpt lat="39.520868" lon="2.929213"/>
    <trkpt lat="39.520863" lon="2.929148"/>
    <trkpt lat="39.520873" lon="2.929058"/>
    <trkpt lat="39.520899" lon="2.928983"/>
    <trkpt lat="39.520947" lon="2.928913"/>
    <trkpt lat="39.521022" lon="2.928859"/>
    <trkpt lat="39.521132" lon="2.928819"/>
    <trkpt lat="39.521204" lon="2.928808"/>
    <trkpt lat="39.521436" lon="2.928817"/>
    <trkpt lat="39.521555" lon="2.928844"/>
    <trkpt lat="39.521645" lon="2.928879"/>
    <trkpt lat="39.521842" lon="2.928998"/>
    <trkpt lat="39.522144" lon="2.929221"/>
    <trkpt lat="39.522293" lon="2.929354"/>
    <trkpt lat="39.522434" lon="2.929540"/>
    <trkpt lat="39.522505" lon="2.929598"/>
    <trkpt lat="39.522713" lon="2.929850"/>
    <trkpt lat="39.523140" lon="2.930392"/>
    <trkpt lat="39.523193" lon="2.930420"/>
    <trkpt lat="39.523249" lon="2.930418"/>
    <trkpt lat="39.523288" lon="2.930389"/>
    <trkpt lat="39.523303" lon="2.930337"/>
    <trkpt lat="39.523292" lon="2.930273"/>
    <trkpt lat="39.523267" lon="2.930223"/>
    <trkpt lat="39.523086" lon="2.930027"/>
    <trkpt lat="39.522961" lon="2.929875"/>
    <trkpt lat="39.522925" lon="2.929832"/>
    <trkpt lat="39.522755" lon="2.929533"/>
    <trkpt lat="39.522585" lon="2.929237"/>
    <trkpt lat="39.522316" lon="2.928799"/>
    <trkpt lat="39.522106" lon="2.928529"/>
    <trkpt lat="39.521958" lon="2.928351"/>
    <trkpt lat="39.521732" lon="2.928140"/>
    <trkpt lat="39.521646" lon="2.928060"/>
    <trkpt lat="39.521469" lon="2.927894"/>
    <trkpt lat="39.521406" lon="2.927835"/>
    <trkpt lat="39.520926" lon="2.927470"/>
    <trkpt lat="39.520774" lon="2.927333"/>
    <trkpt lat="39.520389" lon="2.926990"/>
    <trkpt lat="39.520305" lon="2.926915"/>
    <trkpt lat="39.519897" lon="2.926546"/>
    <trkpt lat="39.519649" lon="2.926356"/>
    <trkpt lat="39.519583" lon="2.926317"/>
    <trkpt lat="39.519521" lon="2.926301"/>
    <trkpt lat="39.519416" lon="2.926303"/>
    <trkpt lat="39.519332" lon="2.926287"/>
    <trkpt lat="39.519279" lon="2.926232"/>
    <trkpt lat="39.519255" lon="2.926175"/>
    <trkpt lat="39.519268" lon="2.926106"/>
    <trkpt lat="39.519292" lon="2.926068"/>
    <trkpt lat="39.519320" lon="2.926041"/>
    <trkpt lat="39.519361" lon="2.926029"/>
    <trkpt lat="39.519400" lon="2.926028"/>
    <trkpt lat="39.519473" lon="2.926060"/>
    <trkpt lat="39.519587" lon="2.926124"/>
    <trkpt lat="39.519747" lon="2.926204"/>
    <trkpt lat="39.519992" lon="2.926361"/>
    <trkpt lat="39.520139" lon="2.926454"/>
    <trkpt lat="39.520824" lon="2.926888"/>
    <trkpt lat="39.521320" lon="2.927251"/>
    <trkpt lat="39.521488" lon="2.927399"/>
    <trkpt lat="39.521549" lon="2.927423"/>
    <trkpt lat="39.521585" lon="2.927405"/>
    <trkpt lat="39.521615" lon="2.927368"/>
    <trkpt lat="39.521635" lon="2.927315"/>
    <trkpt lat="39.521631" lon="2.927254"/>
    <trkpt lat="39.521601" lon="2.927208"/>
    <trkpt lat="39.521561" lon="2.927178"/>
    <trkpt lat="39.521429" lon="2.927111"/>
    <trkpt lat="39.521324" lon="2.927053"/>
    <trkpt lat="39.521239" lon="2.926991"/>
    <trkpt lat="39.521142" lon="2.926895"/>
    <trkpt lat="39.521067" lon="2.926790"/>
    <trkpt lat="39.520881" lon="2.926528"/>
    <trkpt lat="39.520658" lon="2.926221"/>
    <trkpt lat="39.520405" lon="2.925928"/>
    <trkpt lat="39.520235" lon="2.925746"/>
    <trkpt lat="39.520074" lon="2.925575"/>
    <trkpt lat="39.520003" lon="2.925498"/>
    <trkpt lat="39.519536" lon="2.925025"/>
    <trkpt lat="39.519341" lon="2.924854"/>
    <trkpt lat="39.519213" lon="2.924765"/>
    <trkpt lat="39.519073" lon="2.924711"/>
    <trkpt lat="39.519022" lon="2.924705"/>
    <trkpt lat="39.518927" lon="2.924692"/>
    <trkpt lat="39.518864" lon="2.924678"/>
    <trkpt lat="39.518822" lon="2.924654"/>
    <trkpt lat="39.518797" lon="2.924606"/>
    <trkpt lat="39.518790" lon="2.924551"/>
    <trkpt lat="39.518810" lon="2.924461"/>
    <trkpt lat="39.518870" lon="2.924329"/>
    <trkpt lat="39.518921" lon="2.924238"/>
    <trkpt lat="39.518972" lon="2.924174"/>
    <trkpt lat="39.519035" lon="2.924079"/>
    <trkpt lat="39.519063" lon="2.924036"/>
    <trkpt lat="39.519133" lon="2.923990"/>
    <trkpt lat="39.519209" lon="2.923960"/>
    <trkpt lat="39.519251" lon="2.923961"/>
    <trkpt lat="39.519291" lon="2.923976"/>
    <trkpt lat="39.519335" lon="2.924008"/>
    <trkpt lat="39.519394" lon="2.924078"/>
    <trkpt lat="39.519448" lon="2.924150"/>
    <trkpt lat="39.519509" lon="2.924204"/>
    <trkpt lat="39.519558" lon="2.924233"/>
    <trkpt lat="39.519697" lon="2.924293"/>
    <trkpt lat="39.519882" lon="2.924345"/>
    <trkpt lat="39.520104" lon="2.924407"/>
    <trkpt lat="39.520171" lon="2.924426"/>
    <trkpt lat="39.520224" lon="2.924428"/>
    <trkpt lat="39.520271" lon="2.924415"/>
    <trkpt lat="39.520304" lon="2.924391"/>
    <trkpt lat="39.520325" lon="2.924339"/>
    <trkpt lat="39.520332" lon="2.924286"/>
    <trkpt lat="39.520345" lon="2.924171"/>
    <trkpt lat="39.520362" lon="2.924050"/>
    <trkpt lat="39.520398" lon="2.923937"/>
    <trkpt lat="39.520461" lon="2.923796"/>
    <trkpt lat="39.520559" lon="2.923655"/>
    <trkpt lat="39.520671" lon="2.923546"/>
    <trkpt lat="39.520808" lon="2.923419"/>
    <trkpt lat="39.520878" lon="2.923361"/>
    <trkpt lat="39.520924" lon="2.923292"/>
    <trkpt lat="39.521232" lon="2.922672"/>
    <trkpt lat="39.521304" lon="2.922543"/>
    <trkpt lat="39.521391" lon="2.922427"/>
    <trkpt lat="39.521486" lon="2.922308"/>
    <trkpt lat="39.521587" lon="2.922207"/>
    <trkpt lat="39.521747" lon="2.922098"/>
    <trkpt lat="39.522174" lon="2.921862"/>
    <trkpt lat="39.522436" lon="2.921689"/>
    <trkpt lat="39.522636" lon="2.921543"/>
    <trkpt lat="39.522747" lon="2.921434"/>
    <trkpt lat="39.522814" lon="2.921323"/>
    <trkpt lat="39.522839" lon="2.921270"/>
    <trkpt lat="39.522851" lon="2.921209"/>
    <trkpt lat="39.522849" lon="2.921138"/>
    <trkpt lat="39.522847" lon="2.921053"/>
    <trkpt lat="39.522854" lon="2.920934"/>
    <trkpt lat="39.522883" lon="2.920838"/>
    <trkpt lat="39.522939" lon="2.920746"/>
    <trkpt lat="39.523027" lon="2.920674"/>
    <trkpt lat="39.523096" lon="2.920632"/>
    <trkpt lat="39.523170" lon="2.920595"/>
    <trkpt lat="39.523235" lon="2.920525"/>
    <trkpt lat="39.523242" lon="2.920455"/>
    <trkpt lat="39.523204" lon="2.920413"/>
    <trkpt lat="39.523169" lon="2.920400"/>
    <trkpt lat="39.523116" lon="2.920402"/>
    <trkpt lat="39.523034" lon="2.920441"/>
    <trkpt lat="39.522965" lon="2.920502"/>
    <trkpt lat="39.522864" lon="2.920591"/>
    <trkpt lat="39.522774" lon="2.920679"/>
    <trkpt lat="39.522720" lon="2.920714"/>
    <trkpt lat="39.522676" lon="2.920718"/>
    <trkpt lat="39.522637" lon="2.920692"/>
    <trkpt lat="39.522620" lon="2.920666"/>
    <trkpt lat="39.522614" lon="2.920603"/>
    <trkpt lat="39.522614" lon="2.920603"/>
    <trkpt lat="39.522628" lon="2.920548"/>
    <trkpt lat="39.522673" lon="2.920490"/>
    <trkpt lat="39.522909" lon="2.920338"/>
    <trkpt lat="39.523144" lon="2.920196"/>
    <trkpt lat="39.523376" lon="2.920072"/>
    <trkpt lat="39.523622" lon="2.919927"/>
    <trkpt lat="39.523719" lon="2.919860"/>
    <trkpt lat="39.523824" lon="2.919793"/>
    <trkpt lat="39.523915" lon="2.919716"/>
    <trkpt lat="39.523989" lon="2.919654"/>
    <trkpt lat="39.524053" lon="2.919574"/>
    <trkpt lat="39.524095" lon="2.919513"/>
    <trkpt lat="39.524209" lon="2.919352"/>
    <trkpt lat="39.524350" lon="2.919125"/>
    <trkpt lat="39.524412" lon="2.918995"/>
    <trkpt lat="39.524453" lon="2.918861"/>
    <trkpt lat="39.524528" lon="2.918544"/>
    <trkpt lat="39.524564" lon="2.918374"/>
    <trkpt lat="39.524572" lon="2.918339"/>
    <trkpt lat="39.524590" lon="2.918266"/>
    <trkpt lat="39.524623" lon="2.918168"/>
    <trkpt lat="39.524634" lon="2.918134"/>
    <trkpt lat="39.524696" lon="2.918033"/>
    <trkpt lat="39.524781" lon="2.917946"/>
    <trkpt lat="39.524915" lon="2.917862"/>
    <trkpt lat="39.525077" lon="2.917749"/>
    <trkpt lat="39.525262" lon="2.917601"/>
    <trkpt lat="39.525327" lon="2.917519"/>
    <trkpt lat="39.525407" lon="2.917370"/>
    <trkpt lat="39.525460" lon="2.917275"/>
    <trkpt lat="39.525496" lon="2.917196"/>
    <trkpt lat="39.525503" lon="2.917180"/>
    <trkpt lat="39.525555" lon="2.917078"/>
    <trkpt lat="39.525556" lon="2.916961"/>
    <trkpt lat="39.525568" lon="2.916878"/>
    <trkpt lat="39.525584" lon="2.916800"/>
    <trkpt lat="39.525634" lon="2.916727"/>
    <trkpt lat="39.525688" lon="2.916659"/>
    <trkpt lat="39.525953" lon="2.916472"/>
    <trkpt lat="39.526096" lon="2.916374"/>
    <trkpt lat="39.526155" lon="2.916323"/>
    <trkpt lat="39.526205" lon="2.916273"/>
    <trkpt lat="39.526258" lon="2.916187"/>
    <trkpt lat="39.526381" lon="2.915687"/>
    <trkpt lat="39.526392" lon="2.915648"/>
    <trkpt lat="39.526240" lon="2.915602"/>
    <trkpt lat="39.526224" lon="2.915528"/>
    <trkpt lat="39.526430" lon="2.914910"/>
    <trkpt lat="39.526474" lon="2.914730"/>
    <trkpt lat="39.526490" lon="2.914602"/>
    <trkpt lat="39.526496" lon="2.914529"/>
    <trkpt lat="39.526538" lon="2.914328"/>
    <trkpt lat="39.526569" lon="2.914236"/>
    <trkpt lat="39.526597" lon="2.914152"/>
    <trkpt lat="39.526663" lon="2.913988"/>
    <trkpt lat="39.526698" lon="2.913915"/>
    <trkpt lat="39.526757" lon="2.913790"/>
    <trkpt lat="39.527054" lon="2.913172"/>
    <trkpt lat="39.527166" lon="2.912905"/>
    <trkpt lat="39.527150" lon="2.912407"/>
    <trkpt lat="39.527105" lon="2.912306"/>
    <trkpt lat="39.526852" lon="2.911998"/>
    <trkpt lat="39.526632" lon="2.911577"/>
    <trkpt lat="39.526534" lon="2.911389"/>
    <trkpt lat="39.526504" lon="2.911337"/>
    <trkpt lat="39.526485" lon="2.911303"/>
    <trkpt lat="39.526361" lon="2.911178"/>
    <trkpt lat="39.526263" lon="2.911078"/>
    <trkpt lat="39.526226" lon="2.911034"/>
    <trkpt lat="39.526204" lon="2.910993"/>
    <trkpt lat="39.525977" lon="2.910599"/>
    <trkpt lat="39.525830" lon="2.910331"/>
    <trkpt lat="39.525708" lon="2.910108"/>
    <trkpt lat="39.525646" lon="2.909994"/>
    <trkpt lat="39.525373" lon="2.909488"/>
    <trkpt lat="39.525213" lon="2.909193"/>
    <trkpt lat="39.525141" lon="2.909000"/>
    <trkpt lat="39.525079" lon="2.908713"/>
    <trkpt lat="39.525015" lon="2.908417"/>
    <trkpt lat="39.524960" lon="2.908128"/>
    <trkpt lat="39.524929" lon="2.908005"/>
    <trkpt lat="39.524894" lon="2.907916"/>
    <trkpt lat="39.524665" lon="2.907516"/>
    <trkpt lat="39.524564" lon="2.907346"/>
    <trkpt lat="39.524411" lon="2.907046"/>
    <trkpt lat="39.524376" lon="2.906975"/>
    <trkpt lat="39.524337" lon="2.906894"/>
    <trkpt lat="39.524313" lon="2.906758"/>
    <trkpt lat="39.524310" lon="2.906707"/>
    <trkpt lat="39.524115" lon="2.906654"/>
    <trkpt lat="39.522993" lon="2.906337"/>
    <trkpt lat="39.522120" lon="2.906092"/>
    <trkpt lat="39.521344" lon="2.905882"/>
    <trkpt lat="39.520774" lon="2.905725"/>
    <trkpt lat="39.520551" lon="2.905664"/>
    <trkpt lat="39.520325" lon="2.905606"/>
    <trkpt lat="39.519518" lon="2.905371"/>
    <trkpt lat="39.519114" lon="2.905260"/>
    <trkpt lat="39.518915" lon="2.905211"/>
    <trkpt lat="39.518709" lon="2.905159"/>
    <trkpt lat="39.518070" lon="2.905084"/>
    <trkpt lat="39.517876" lon="2.905073"/>
    <trkpt lat="39.517331" lon="2.905039"/>
    <trkpt lat="39.516755" lon="2.904973"/>
    <trkpt lat="39.516562" lon="2.904933"/>
    <trkpt lat="39.515343" lon="2.904675"/>
    <trkpt lat="39.515141" lon="2.904603"/>
    <trkpt lat="39.514904" lon="2.904489"/>
    <trkpt lat="39.513426" lon="2.903503"/>
    <trkpt lat="39.511871" lon="2.902466"/>
    <trkpt lat="39.511250" lon="2.902052"/>
    <trkpt lat="39.509665" lon="2.900994"/>
    <trkpt lat="39.509087" lon="2.900605"/>
    <trkpt lat="39.508588" lon="2.900321"/>
    <trkpt lat="39.508353" lon="2.900175"/>
    <trkpt lat="39.507670" lon="2.899795"/>
    <trkpt lat="39.506809" lon="2.899309"/>
    <trkpt lat="39.504305" lon="2.897894"/>
    <trkpt lat="39.503205" lon="2.897308"/>
    <trkpt lat="39.502767" lon="2.896984"/>
    <trkpt lat="39.502065" lon="2.896442"/>
    <trkpt lat="39.501918" lon="2.896322"/>
    <trkpt lat="39.501578" lon="2.896058"/>
    <trkpt lat="39.501312" lon="2.895875"/>
    <trkpt lat="39.500997" lon="2.895702"/>
    <trkpt lat="39.500729" lon="2.895583"/>
    <trkpt lat="39.500653" lon="2.895555"/>
    <trkpt lat="39.500455" lon="2.895481"/>
    <trkpt lat="39.499849" lon="2.895292"/>
    <trkpt lat="39.499757" lon="2.895255"/>
    <trkpt lat="39.499652" lon="2.895177"/>
    <trkpt lat="39.499573" lon="2.895076"/>
    <trkpt lat="39.499520" lon="2.894974"/>
    <trkpt lat="39.499514" lon="2.894936"/>
    <trkpt lat="39.499501" lon="2.894901"/>
    <trkpt lat="39.499481" lon="2.894872"/>
    <trkpt lat="39.499456" lon="2.894849"/>
    <trkpt lat="39.499429" lon="2.894836"/>
    <trkpt lat="39.499400" lon="2.894832"/>
    <trkpt lat="39.499372" lon="2.894837"/>
    <trkpt lat="39.499336" lon="2.894858"/>
    <trkpt lat="39.499307" lon="2.894893"/>
    <trkpt lat="39.499289" lon="2.894938"/>
    <trkpt lat="39.499283" lon="2.894988"/>
    <trkpt lat="39.499290" lon="2.895038"/>
    <trkpt lat="39.499083" lon="2.895042"/>
    <trkpt lat="39.497909" lon="2.894652"/>
    <trkpt lat="39.496702" lon="2.894263"/>
    <trkpt lat="39.495014" lon="2.893698"/>
    <trkpt lat="39.494039" lon="2.893381"/>
    <trkpt lat="39.493751" lon="2.893287"/>
    <trkpt lat="39.493532" lon="2.893245"/>
    <trkpt lat="39.493367" lon="2.893359"/>
    <trkpt lat="39.493299" lon="2.893407"/>
    <trkpt lat="39.493205" lon="2.893457"/>
    <trkpt lat="39.493182" lon="2.893465"/>
    <trkpt lat="39.493026" lon="2.893517"/>
    <trkpt lat="39.492931" lon="2.893513"/>
    <trkpt lat="39.492742" lon="2.893505"/>
    <trkpt lat="39.492603" lon="2.893499"/>
    <trkpt lat="39.492513" lon="2.893480"/>
    <trkpt lat="39.492331" lon="2.893348"/>
    <trkpt lat="39.492227" lon="2.893275"/>
    <trkpt lat="39.492091" lon="2.893180"/>
    <trkpt lat="39.492010" lon="2.893344"/>
    <trkpt lat="39.491819" lon="2.893743"/>
    <trkpt lat="39.491755" lon="2.893700"/>
    <trkpt lat="39.491432" lon="2.893487"/>
    <trkpt lat="39.491056" lon="2.893275"/>
    <trkpt lat="39.490322" lon="2.892662"/>
    <trkpt lat="39.489611" lon="2.892113"/>
    <trkpt lat="39.490150" lon="2.890996"/>
    <trkpt lat="39.490252" lon="2.890764"/>
    <trkpt lat="39.490447" lon="2.890319"/>
    <trkpt lat="39.490938" lon="2.889322"/>
    <trkpt lat="39.491282" lon="2.888273"/>
    <trkpt lat="39.491298" lon="2.888221"/>
    <trkpt lat="39.491084" lon="2.887991"/>
    <trkpt lat="39.490997" lon="2.887908"/>
    <trkpt lat="39.491164" lon="2.887568"/>
    <trkpt lat="39.491596" lon="2.886677"/>
    <trkpt lat="39.492002" lon="2.885833"/>
    <trkpt lat="39.492444" lon="2.884929"/>
    <trkpt lat="39.492485" lon="2.884849"/>
    <trkpt lat="39.492759" lon="2.884289"/>
    <trkpt lat="39.493205" lon="2.884626"/>
    <trkpt lat="39.493350" lon="2.884314"/>
    <trkpt lat="39.493512" lon="2.883970"/>
    <trkpt lat="39.493740" lon="2.883482"/>
    <trkpt lat="39.494072" lon="2.882779"/>
    <trkpt lat="39.494540" lon="2.881787"/>
    <trkpt lat="39.494744" lon="2.881346"/>
    <trkpt lat="39.494789" lon="2.881247"/>
    <trkpt lat="39.494861" lon="2.881094"/>
    <trkpt lat="39.495964" lon="2.878736"/>
    <trkpt lat="39.496678" lon="2.877221"/>
    <trkpt lat="39.497656" lon="2.875085"/>
    <trkpt lat="39.497714" lon="2.874962"/>
    <trkpt lat="39.498724" lon="2.872812"/>
    <trkpt lat="39.501108" lon="2.867724"/>
    <trkpt lat="39.505457" lon="2.858445"/>
    <trkpt lat="39.507418" lon="2.854259"/>
    <trkpt lat="39.507492" lon="2.854100"/>
    <trkpt lat="39.507751" lon="2.853480"/>
    <trkpt lat="39.508641" lon="2.851568"/>
    <trkpt lat="39.509527" lon="2.849709"/>
    <trkpt lat="39.510184" lon="2.848292"/>
    <trkpt lat="39.510305" lon="2.848036"/>
    <trkpt lat="39.510991" lon="2.846560"/>
    <trkpt lat="39.512536" lon="2.843239"/>
    <trkpt lat="39.512757" lon="2.842764"/>
    <trkpt lat="39.512879" lon="2.842503"/>
    <trkpt lat="39.513589" lon="2.840976"/>
    <trkpt lat="39.514222" lon="2.839613"/>
    <trkpt lat="39.514932" lon="2.838087"/>
    <trkpt lat="39.515282" lon="2.837335"/>
    <trkpt lat="39.516075" lon="2.835630"/>
    <trkpt lat="39.518395" lon="2.830646"/>
    <trkpt lat="39.518433" lon="2.830565"/>
    <trkpt lat="39.519482" lon="2.828309"/>
    <trkpt lat="39.520253" lon="2.826652"/>
    <trkpt lat="39.520566" lon="2.825980"/>
    <trkpt lat="39.521211" lon="2.824591"/>
    <trkpt lat="39.522016" lon="2.822859"/>
    <trkpt lat="39.522227" lon="2.822408"/>
    <trkpt lat="39.522796" lon="2.821193"/>
    <trkpt lat="39.524040" lon="2.818538"/>
    <trkpt lat="39.526055" lon="2.814223"/>
    <trkpt lat="39.526600" lon="2.813066"/>
    <trkpt lat="39.527738" lon="2.810651"/>
    <trkpt lat="39.528045" lon="2.809948"/>
    <trkpt lat="39.528078" lon="2.809872"/>
    <trkpt lat="39.528381" lon="2.809047"/>
    <trkpt lat="39.529143" lon="2.806932"/>
    <trkpt lat="39.531498" lon="2.800407"/>
    <trkpt lat="39.532148" lon="2.798616"/>
    <trkpt lat="39.532963" lon="2.796354"/>
    <trkpt lat="39.533069" lon="2.796085"/>
    <trkpt lat="39.533918" lon="2.793762"/>
    <trkpt lat="39.534000" lon="2.793515"/>
    <trkpt lat="39.534489" lon="2.792173"/>
    <trkpt lat="39.535371" lon="2.789767"/>
    <trkpt lat="39.537586" lon="2.783612"/>
    <trkpt lat="39.538446" lon="2.781295"/>
    <trkpt lat="39.539380" lon="2.778682"/>
    <trkpt lat="39.540075" lon="2.776735"/>
    <trkpt lat="39.540223" lon="2.776319"/>
    <trkpt lat="39.540559" lon="2.775383"/>
    <trkpt lat="39.540895" lon="2.774481"/>
    <trkpt lat="39.541116" lon="2.773887"/>
    <trkpt lat="39.541284" lon="2.773436"/>
    <trkpt lat="39.541425" lon="2.773059"/>
    <trkpt lat="39.541619" lon="2.772527"/>
    <trkpt lat="39.542085" lon="2.771246"/>
    <trkpt lat="39.542119" lon="2.771152"/>
    <trkpt lat="39.542244" lon="2.770796"/>
    <trkpt lat="39.542536" lon="2.770024"/>
    <trkpt lat="39.542826" lon="2.769260"/>
    <trkpt lat="39.543105" lon="2.768524"/>
    <trkpt lat="39.543343" lon="2.767842"/>
    <trkpt lat="39.543511" lon="2.767361"/>
    <trkpt lat="39.543918" lon="2.766198"/>
    <trkpt lat="39.544175" lon="2.765513"/>
    <trkpt lat="39.544195" lon="2.765461"/>
    <trkpt lat="39.544450" lon="2.764762"/>
    <trkpt lat="39.544486" lon="2.764664"/>
    <trkpt lat="39.544897" lon="2.763527"/>
    <trkpt lat="39.545706" lon="2.761295"/>
    <trkpt lat="39.545767" lon="2.761139"/>
    <trkpt lat="39.546065" lon="2.760329"/>
    <trkpt lat="39.546729" lon="2.758442"/>
    <trkpt lat="39.547313" lon="2.756875"/>
    <trkpt lat="39.547318" lon="2.756860"/>
    <trkpt lat="39.547457" lon="2.756423"/>
    <trkpt lat="39.547566" lon="2.756128"/>
    <trkpt lat="39.547610" lon="2.755910"/>
    <trkpt lat="39.547656" lon="2.755689"/>
    <trkpt lat="39.547704" lon="2.755250"/>
    <trkpt lat="39.547695" lon="2.754908"/>
    <trkpt lat="39.547665" lon="2.754567"/>
    <trkpt lat="39.547666" lon="2.754290"/>
    <trkpt lat="39.547703" lon="2.754177"/>
    <trkpt lat="39.547731" lon="2.754093"/>
    <trkpt lat="39.547785" lon="2.754085"/>
    <trkpt lat="39.547829" lon="2.754062"/>
    <trkpt lat="39.547984" lon="2.754102"/>
    <trkpt lat="39.548136" lon="2.754207"/>
    <trkpt lat="39.548258" lon="2.754352"/>
    <trkpt lat="39.548351" lon="2.754548"/>
    <trkpt lat="39.548541" lon="2.755021"/>
    <trkpt lat="39.548838" lon="2.755712"/>
    <trkpt lat="39.549056" lon="2.756208"/>
    <trkpt lat="39.549427" lon="2.756939"/>
    <trkpt lat="39.550102" lon="2.758270"/>
    <trkpt lat="39.551849" lon="2.761339"/>
    <trkpt lat="39.553137" lon="2.763652"/>
    <trkpt lat="39.553362" lon="2.764058"/>
    <trkpt lat="39.554023" lon="2.765239"/>
    <trkpt lat="39.554150" lon="2.765443"/>
    <trkpt lat="39.554281" lon="2.765615"/>
    <trkpt lat="39.554400" lon="2.765744"/>
    <trkpt lat="39.554541" lon="2.765873"/>
    <trkpt lat="39.555657" lon="2.766771"/>
    <trkpt lat="39.556760" lon="2.767659"/>
    <trkpt lat="39.557195" lon="2.768019"/>
    <trkpt lat="39.558290" lon="2.768936"/>
    <trkpt lat="39.558793" lon="2.769355"/>
    <trkpt lat="39.558881" lon="2.769425"/>
    <trkpt lat="39.559012" lon="2.769595"/>
    <trkpt lat="39.559044" lon="2.769637"/>
    <trkpt lat="39.559038" lon="2.769708"/>
    <trkpt lat="39.559052" lon="2.769777"/>
    <trkpt lat="39.559076" lon="2.769827"/>
    <trkpt lat="39.559111" lon="2.769866"/>
    <trkpt lat="39.559153" lon="2.769890"/>
    <trkpt lat="39.559201" lon="2.769897"/>
    <trkpt lat="39.559249" lon="2.769885"/>
    <trkpt lat="39.559293" lon="2.769852"/>
    <trkpt lat="39.559327" lon="2.769802"/>
    <trkpt lat="39.559348" lon="2.769741"/>
    <trkpt lat="39.559349" lon="2.769656"/>
    <trkpt lat="39.559325" lon="2.769578"/>
    <trkpt lat="39.559357" lon="2.769409"/>
    <trkpt lat="39.560894" lon="2.766713"/>
    <trkpt lat="39.560943" lon="2.766633"/>
    <trkpt lat="39.561024" lon="2.766487"/>
    <trkpt lat="39.561451" lon="2.765725"/>
    <trkpt lat="39.561675" lon="2.765328"/>
    <trkpt lat="39.562040" lon="2.764695"/>
    <trkpt lat="39.562382" lon="2.764087"/>
    <trkpt lat="39.562857" lon="2.763262"/>
    <trkpt lat="39.562897" lon="2.763195"/>
    <trkpt lat="39.563011" lon="2.763027"/>
    <trkpt lat="39.564400" lon="2.761066"/>
    <trkpt lat="39.565731" lon="2.759174"/>
    <trkpt lat="39.565959" lon="2.758908"/>
    <trkpt lat="39.566075" lon="2.758797"/>
    <trkpt lat="39.566376" lon="2.758549"/>
    <trkpt lat="39.566447" lon="2.758527"/>
    <trkpt lat="39.566566" lon="2.758523"/>
    <trkpt lat="39.567344" lon="2.758518"/>
    <trkpt lat="39.567384" lon="2.758517"/>
    <trkpt lat="39.567384" lon="2.758267"/>
    <trkpt lat="39.567399" lon="2.758059"/>
    <trkpt lat="39.567430" lon="2.757799"/>
    <trkpt lat="39.567466" lon="2.757559"/>
    <trkpt lat="39.567501" lon="2.757332"/>
    <trkpt lat="39.567579" lon="2.756742"/>
    <trkpt lat="39.567589" lon="2.756672"/>
    <trkpt lat="39.567593" lon="2.756639"/>
    <trkpt lat="39.567637" lon="2.756287"/>
    <trkpt lat="39.567720" lon="2.755801"/>
    <trkpt lat="39.567804" lon="2.755411"/>
    <trkpt lat="39.567971" lon="2.754894"/>
    <trkpt lat="39.568041" lon="2.754705"/>
    <trkpt lat="39.568107" lon="2.754452"/>
    <trkpt lat="39.568180" lon="2.754183"/>
    <trkpt lat="39.568247" lon="2.753884"/>
    <trkpt lat="39.568442" lon="2.752757"/>
    <trkpt lat="39.568460" lon="2.752598"/>
    <trkpt lat="39.568466" lon="2.752443"/>
    <trkpt lat="39.568461" lon="2.752241"/>
    <trkpt lat="39.568437" lon="2.751802"/>
    <trkpt lat="39.568413" lon="2.751652"/>
    <trkpt lat="39.568366" lon="2.751514"/>
    <trkpt lat="39.568274" lon="2.751315"/>
    <trkpt lat="39.568303" lon="2.751217"/>
    <trkpt lat="39.568343" lon="2.751152"/>
    <trkpt lat="39.568373" lon="2.751124"/>
    <trkpt lat="39.568389" lon="2.751126"/>
    <trkpt lat="39.568434" lon="2.751115"/>
    <trkpt lat="39.568474" lon="2.751083"/>
    <trkpt lat="39.568518" lon="2.751063"/>
    <trkpt lat="39.568582" lon="2.751057"/>
    <trkpt lat="39.568729" lon="2.751075"/>
    <trkpt lat="39.569037" lon="2.751169"/>
    <trkpt lat="39.569304" lon="2.751255"/>
    <trkpt lat="39.569342" lon="2.751267"/>
    <trkpt lat="39.569516" lon="2.750233"/>
    <trkpt lat="39.569591" lon="2.749570"/>
    <trkpt lat="39.569660" lon="2.749091"/>
    <trkpt lat="39.569722" lon="2.748811"/>
    <trkpt lat="39.569828" lon="2.748442"/>
    <trkpt lat="39.570081" lon="2.747589"/>
    <trkpt lat="39.570291" lon="2.746834"/>
    <trkpt lat="39.570755" lon="2.744960"/>
    <trkpt lat="39.570952" lon="2.744134"/>
    <trkpt lat="39.571092" lon="2.743226"/>
    <trkpt lat="39.571149" lon="2.742862"/>
    <trkpt lat="39.571199" lon="2.742313"/>
    <trkpt lat="39.571253" lon="2.740052"/>
    <trkpt lat="39.571199" lon="2.739469"/>
    <trkpt lat="39.571181" lon="2.738902"/>
    <trkpt lat="39.571193" lon="2.738711"/>
    <trkpt lat="39.571231" lon="2.738536"/>
    <trkpt lat="39.571300" lon="2.738308"/>
    <trkpt lat="39.571338" lon="2.738244"/>
    <trkpt lat="39.571388" lon="2.738114"/>
    <trkpt lat="39.571413" lon="2.738064"/>
    <trkpt lat="39.571460" lon="2.738005"/>
    <trkpt lat="39.571485" lon="2.737944"/>
    <trkpt lat="39.571496" lon="2.737855"/>
    <trkpt lat="39.571481" lon="2.737765"/>
    <trkpt lat="39.571430" lon="2.737676"/>
    <trkpt lat="39.571389" lon="2.737641"/>
    <trkpt lat="39.571335" lon="2.737619"/>
    <trkpt lat="39.571293" lon="2.737617"/>
    <trkpt lat="39.571230" lon="2.737561"/>
    <trkpt lat="39.571192" lon="2.737485"/>
    <trkpt lat="39.571163" lon="2.737319"/>
    <trkpt lat="39.571165" lon="2.737110"/>
    <trkpt lat="39.571170" lon="2.736716"/>
    <trkpt lat="39.571176" lon="2.736245"/>
    <trkpt lat="39.571183" lon="2.735782"/>
    <trkpt lat="39.571187" lon="2.735102"/>
    <trkpt lat="39.571188" lon="2.734854"/>
    <trkpt lat="39.571211" lon="2.733211"/>
    <trkpt lat="39.571215" lon="2.732759"/>
    <trkpt lat="39.571231" lon="2.731024"/>
    <trkpt lat="39.571239" lon="2.730114"/>
    <trkpt lat="39.571252" lon="2.728699"/>
    <trkpt lat="39.571265" lon="2.727277"/>
    <trkpt lat="39.571272" lon="2.726431"/>
    <trkpt lat="39.571282" lon="2.725406"/>
    <trkpt lat="39.571307" lon="2.721798"/>
    <trkpt lat="39.571311" lon="2.721382"/>
    <trkpt lat="39.571317" lon="2.720830"/>
    <trkpt lat="39.571318" lon="2.720664"/>
    <trkpt lat="39.571330" lon="2.720227"/>
    <trkpt lat="39.571333" lon="2.719881"/>
    <trkpt lat="39.571336" lon="2.719441"/>
    <trkpt lat="39.571337" lon="2.719126"/>
    <trkpt lat="39.571340" lon="2.718245"/>
    <trkpt lat="39.571399" lon="2.718246"/>
    <trkpt lat="39.571429" lon="2.718240"/>
    <trkpt lat="39.571859" lon="2.718105"/>
    <trkpt lat="39.571966" lon="2.718079"/>
    <trkpt lat="39.572504" lon="2.717912"/>
    <trkpt lat="39.572563" lon="2.717893"/>
    <trkpt lat="39.573115" lon="2.717725"/>
    <trkpt lat="39.573629" lon="2.717569"/>
    <trkpt lat="39.574150" lon="2.717410"/>
    <trkpt lat="39.574688" lon="2.717246"/>
    <trkpt lat="39.574762" lon="2.717225"/>
    <trkpt lat="39.575161" lon="2.717111"/>
    <trkpt lat="39.575274" lon="2.717079"/>
    <trkpt lat="39.575793" lon="2.716924"/>
    <trkpt lat="39.576317" lon="2.716762"/>
    <trkpt lat="39.576827" lon="2.716598"/>
    <trkpt lat="39.577367" lon="2.716431"/>
    <trkpt lat="39.577894" lon="2.716259"/>
    <trkpt lat="39.578423" lon="2.716105"/>
    <trkpt lat="39.578838" lon="2.715972"/>
    <trkpt lat="39.578923" lon="2.715935"/>
    <trkpt lat="39.578926" lon="2.715762"/>
    <trkpt lat="39.578934" lon="2.715438"/>
    <trkpt lat="39.578911" lon="2.714951"/>
    <trkpt lat="39.578889" lon="2.714123"/>
    <trkpt lat="39.578860" lon="2.713268"/>
    <trkpt lat="39.578814" lon="2.712673"/>
    <trkpt lat="39.578766" lon="2.712260"/>
    <trkpt lat="39.578747" lon="2.712009"/>
    <trkpt lat="39.578738" lon="2.711792"/>
    <trkpt lat="39.578732" lon="2.711235"/>
    <trkpt lat="39.578768" lon="2.711005"/>
    <trkpt lat="39.578783" lon="2.710940"/>
    <trkpt lat="39.578793" lon="2.710920"/>
    <trkpt lat="39.578816" lon="2.710876"/>
    <trkpt lat="39.578875" lon="2.710815"/>
    <trkpt lat="39.578924" lon="2.710789"/>
    <trkpt lat="39.578978" lon="2.710745"/>
    <trkpt lat="39.579009" lon="2.710702"/>
    <trkpt lat="39.579048" lon="2.710635"/>
    <trkpt lat="39.579078" lon="2.710549"/>
    <trkpt lat="39.579090" lon="2.710462"/>
    <trkpt lat="39.579095" lon="2.710393"/>
    <trkpt lat="39.579085" lon="2.710287"/>
    <trkpt lat="39.579077" lon="2.710250"/>
    <trkpt lat="39.579052" lon="2.710184"/>
    <trkpt lat="39.579014" lon="2.710120"/>
    <trkpt lat="39.578962" lon="2.710060"/>
    <trkpt lat="39.578912" lon="2.710021"/>
    <trkpt lat="39.578864" lon="2.709933"/>
    <trkpt lat="39.578855" lon="2.709905"/>
    <trkpt lat="39.578844" lon="2.709873"/>
    <trkpt lat="39.578783" lon="2.709596"/>
    <trkpt lat="39.578722" lon="2.709112"/>
    <trkpt lat="39.578687" lon="2.708821"/>
    <trkpt lat="39.578627" lon="2.708374"/>
    <trkpt lat="39.578560" lon="2.707788"/>
    <trkpt lat="39.578492" lon="2.707195"/>
    <trkpt lat="39.578436" lon="2.706831"/>
    <trkpt lat="39.578379" lon="2.706504"/>
    <trkpt lat="39.578309" lon="2.706160"/>
    <trkpt lat="39.578232" lon="2.705822"/>
    <trkpt lat="39.578149" lon="2.705480"/>
    <trkpt lat="39.578105" lon="2.705299"/>
    <trkpt lat="39.577944" lon="2.704659"/>
    <trkpt lat="39.577632" lon="2.703427"/>
    <trkpt lat="39.576983" lon="2.700822"/>
    <trkpt lat="39.576832" lon="2.700213"/>
    <trkpt lat="39.576701" lon="2.699639"/>
    <trkpt lat="39.575913" lon="2.696337"/>
    <trkpt lat="39.575759" lon="2.695728"/>
    <trkpt lat="39.575650" lon="2.695300"/>
    <trkpt lat="39.575496" lon="2.694787"/>
    <trkpt lat="39.575246" lon="2.694111"/>
    <trkpt lat="39.574998" lon="2.693497"/>
    <trkpt lat="39.574912" lon="2.693209"/>
    <trkpt lat="39.574781" lon="2.692646"/>
    <trkpt lat="39.574769" lon="2.692585"/>
    <trkpt lat="39.574763" lon="2.692094"/>
    <trkpt lat="39.574902" lon="2.689206"/>
    <trkpt lat="39.574939" lon="2.688202"/>
    <trkpt lat="39.574926" lon="2.688026"/>
    <trkpt lat="39.574912" lon="2.687841"/>
    <trkpt lat="39.574335" lon="2.685879"/>
    <trkpt lat="39.574297" lon="2.685747"/>
    <trkpt lat="39.574285" lon="2.685651"/>
    <trkpt lat="39.574276" lon="2.685575"/>
    <trkpt lat="39.574278" lon="2.685528"/>
    <trkpt lat="39.574284" lon="2.685480"/>
    <trkpt lat="39.574308" lon="2.685404"/>
    <trkpt lat="39.574333" lon="2.685377"/>
    <trkpt lat="39.574350" lon="2.685340"/>
    <trkpt lat="39.574361" lon="2.685304"/>
    <trkpt lat="39.574368" lon="2.685269"/>
    <trkpt lat="39.574369" lon="2.685231"/>
    <trkpt lat="39.574362" lon="2.685189"/>
    <trkpt lat="39.574349" lon="2.685151"/>
    <trkpt lat="39.574328" lon="2.685116"/>
    <trkpt lat="39.574307" lon="2.685088"/>
    <trkpt lat="39.574274" lon="2.685061"/>
    <trkpt lat="39.574237" lon="2.685045"/>
    <trkpt lat="39.574191" lon="2.685041"/>
    <trkpt lat="39.574161" lon="2.685052"/>
    <trkpt lat="39.574133" lon="2.685067"/>
    <trkpt lat="39.574106" lon="2.685088"/>
    <trkpt lat="39.574083" lon="2.685117"/>
    <trkpt lat="39.574062" lon="2.685161"/>
    <trkpt lat="39.574048" lon="2.685207"/>
    <trkpt lat="39.574014" lon="2.685241"/>
    <trkpt lat="39.573981" lon="2.685273"/>
    <trkpt lat="39.573946" lon="2.685300"/>
    <trkpt lat="39.573886" lon="2.685342"/>
    <trkpt lat="39.573838" lon="2.685353"/>
    <trkpt lat="39.573641" lon="2.685397"/>
    <trkpt lat="39.572960" lon="2.685531"/>
    <trkpt lat="39.572563" lon="2.685615"/>
    <trkpt lat="39.572218" lon="2.685688"/>
    <trkpt lat="39.572061" lon="2.685720"/>
    <trkpt lat="39.571654" lon="2.685773"/>
    <trkpt lat="39.570967" lon="2.685840"/>
    <trkpt lat="39.570828" lon="2.685807"/>
    <trkpt lat="39.570736" lon="2.685775"/>
    <trkpt lat="39.570640" lon="2.685724"/>
    <trkpt lat="39.570607" lon="2.685681"/>
    <trkpt lat="39.570568" lon="2.685647"/>
    <trkpt lat="39.570517" lon="2.685532"/>
    <trkpt lat="39.570488" lon="2.685423"/>
    <trkpt lat="39.570483" lon="2.685277"/>
    <trkpt lat="39.570480" lon="2.685015"/>
    <trkpt lat="39.570458" lon="2.683227"/>
    <trkpt lat="39.570454" lon="2.683014"/>
    <trkpt lat="39.570423" lon="2.680904"/>
    <trkpt lat="39.570416" lon="2.680620"/>
    <trkpt lat="39.570409" lon="2.680321"/>
    <trkpt lat="39.570407" lon="2.680047"/>
    <trkpt lat="39.570404" lon="2.679426"/>
    <trkpt lat="39.570409" lon="2.678929"/>
    <trkpt lat="39.570432" lon="2.678461"/>
    <trkpt lat="39.570460" lon="2.678209"/>
    <trkpt lat="39.570513" lon="2.677834"/>
    <trkpt lat="39.570538" lon="2.677670"/>
    <trkpt lat="39.570579" lon="2.677398"/>
    <trkpt lat="39.570638" lon="2.677031"/>
    <trkpt lat="39.570663" lon="2.676887"/>
    <trkpt lat="39.570676" lon="2.676826"/>
    <trkpt lat="39.570691" lon="2.676774"/>
    <trkpt lat="39.570723" lon="2.676710"/>
    <trkpt lat="39.570758" lon="2.676669"/>
    <trkpt lat="39.570788" lon="2.676653"/>
    <trkpt lat="39.570817" lon="2.676628"/>
    <trkpt lat="39.570841" lon="2.676598"/>
    <trkpt lat="39.570861" lon="2.676563"/>
    <trkpt lat="39.570877" lon="2.676523"/>
    <trkpt lat="39.570886" lon="2.676480"/>
    <trkpt lat="39.570891" lon="2.676436"/>
    <trkpt lat="39.570889" lon="2.676391"/>
    <trkpt lat="39.570883" lon="2.676356"/>
    <trkpt lat="39.570868" lon="2.676243"/>
    <trkpt lat="39.570870" lon="2.676133"/>
    <trkpt lat="39.570873" lon="2.676085"/>
    <trkpt lat="39.570889" lon="2.676016"/>
    <trkpt lat="39.570916" lon="2.675931"/>
    <trkpt lat="39.570946" lon="2.675848"/>
    <trkpt lat="39.571000" lon="2.675732"/>
    <trkpt lat="39.571142" lon="2.675387"/>
    <trkpt lat="39.571175" lon="2.675281"/>
    <trkpt lat="39.571202" lon="2.675187"/>
    <trkpt lat="39.571213" lon="2.675106"/>
    <trkpt lat="39.571222" lon="2.675023"/>
    <trkpt lat="39.571226" lon="2.674935"/>
    <trkpt lat="39.571224" lon="2.674744"/>
    <trkpt lat="39.571220" lon="2.673816"/>
    <trkpt lat="39.571219" lon="2.673530"/>
    <trkpt lat="39.571220" lon="2.673242"/>
    <trkpt lat="39.571223" lon="2.672827"/>
    <trkpt lat="39.571224" lon="2.672659"/>
    <trkpt lat="39.571224" lon="2.672539"/>
    <trkpt lat="39.571229" lon="2.671712"/>
    <trkpt lat="39.571230" lon="2.671502"/>
    <trkpt lat="39.571232" lon="2.671171"/>
    <trkpt lat="39.571260" lon="2.671054"/>
    <trkpt lat="39.571310" lon="2.670730"/>
    <trkpt lat="39.571337" lon="2.670603"/>
    <trkpt lat="39.571346" lon="2.670520"/>
    <trkpt lat="39.571362" lon="2.669458"/>
    <trkpt lat="39.571369" lon="2.668968"/>
    <trkpt lat="39.571392" lon="2.667731"/>
    <trkpt lat="39.571401" lon="2.667213"/>
    <trkpt lat="39.571390" lon="2.666715"/>
    <trkpt lat="39.571393" lon="2.665634"/>
    <trkpt lat="39.571433" lon="2.665383"/>
    <trkpt lat="39.571447" lon="2.665190"/>
    <trkpt lat="39.571503" lon="2.664375"/>
    <trkpt lat="39.571577" lon="2.663328"/>
    <trkpt lat="39.571585" lon="2.663184"/>
    <trkpt lat="39.571558" lon="2.662448"/>
    <trkpt lat="39.571530" lon="2.661575"/>
    <trkpt lat="39.571523" lon="2.661339"/>
    <trkpt lat="39.571516" lon="2.661129"/>
    <trkpt lat="39.571481" lon="2.659872"/>
    <trkpt lat="39.571475" lon="2.659640"/>
    <trkpt lat="39.571460" lon="2.659052"/>
    <trkpt lat="39.571455" lon="2.658957"/>
    <trkpt lat="39.571439" lon="2.658170"/>
    <trkpt lat="39.571437" lon="2.658079"/>
    <trkpt lat="39.571427" lon="2.657155"/>
    <trkpt lat="39.571428" lon="2.657131"/>
    <trkpt lat="39.571427" lon="2.656772"/>
    <trkpt lat="39.571508" lon="2.656769"/>
    <trkpt lat="39.571680" lon="2.656791"/>
    <trkpt lat="39.572038" lon="2.656838"/>
    <trkpt lat="39.572399" lon="2.656889"/>
    <trkpt lat="39.572592" lon="2.656917"/>
    <trkpt lat="39.572646" lon="2.656916"/>
    <trkpt lat="39.572721" lon="2.656896"/>
    <trkpt lat="39.572794" lon="2.656845"/>
    <trkpt lat="39.572882" lon="2.656755"/>
    <trkpt lat="39.572970" lon="2.656642"/>
    <trkpt lat="39.573035" lon="2.656550"/>
    <trkpt lat="39.573231" lon="2.656293"/>
    <trkpt lat="39.573423" lon="2.656038"/>
    <trkpt lat="39.573548" lon="2.655885"/>
    <trkpt lat="39.573576" lon="2.655851"/>
    <trkpt lat="39.573623" lon="2.655808"/>
    <trkpt lat="39.573677" lon="2.655778"/>
    <trkpt lat="39.573784" lon="2.655754"/>
    <trkpt lat="39.573811" lon="2.655750"/>
    <trkpt lat="39.574319" lon="2.655669"/>
    <trkpt lat="39.574809" lon="2.655577"/>
    <trkpt lat="39.574899" lon="2.655556"/>
    <trkpt lat="39.574950" lon="2.655519"/>
    <trkpt lat="39.574980" lon="2.655497"/>
    <trkpt lat="39.575025" lon="2.655431"/>
    <trkpt lat="39.575085" lon="2.655325"/>
    <trkpt lat="39.575137" lon="2.655200"/>
    <trkpt lat="39.575198" lon="2.654879"/>
    <trkpt lat="39.575324" lon="2.654595"/>
    <trkpt lat="39.575341" lon="2.654561"/>
    <trkpt lat="39.575429" lon="2.654423"/>
    <trkpt lat="39.576024" lon="2.655272"/>
  </trkseg></trk>
</gpx>
